{
  "type": "FeatureCollection",
  "name": "geometry",
  "features": [
    {
      "type": "Feature",
      "properties": { "name": "KDTW Airport", "icon": "target", "type": null, "order": null },
      "geometry": { "type": "Point", "coordinates": [-83.3533933, 42.2124311, 0.0] }
    },
    {
      "type": "Feature",
      "properties": { "name": "KORD Airport", "icon": "target", "type": null, "order": null },
      "geometry": { "type": "Point", "coordinates": [-87.9081497, 41.9769403, 0.0] }
    },
    {
      "type": "Feature",
      "properties": { "name": "RPA4350", "icon": null, "type": "flight", "order": 1.0 },
      "geometry": {
        "type": "LineString",
        "coordinates": [
          [-83.36304, 42.21362, 221.0],
          [-83.37096, 42.20328, 465.0],
          [-83.37805, 42.19414, 587.0],
          [-83.38973, 42.18347, 671.0],
          [-83.40673, 42.17419, 792.0],
          [-83.42302, 42.16492, 998.0],
          [-83.44241, 42.15468, 1250.0],
          [-83.4662, 42.15017, 1379.0],
          [-83.49392, 42.15473, 1585.0],
          [-83.52855, 42.16617, 1928.0],
          [-83.57362, 42.18127, 2324.0],
          [-83.61875, 42.19647, 2835.0],
          [-83.66555, 42.21185, 3193.0],
          [-83.71819, 42.22966, 3338.0],
          [-83.77625, 42.24895, 3650.0],
          [-83.83495, 42.26845, 4023.0],
          [-83.89588, 42.28866, 4343.0],
          [-83.95727, 42.30894, 4656.0],
          [-84.02216, 42.33032, 4968.0],
          [-84.08284, 42.35029, 5235.0],
          [-84.14997, 42.37234, 5555.0],
          [-84.21595, 42.39396, 5799.0],
          [-84.28199, 42.41556, 6081.0],
          [-84.33012, 42.42764, 6279.0],
          [-84.37225, 42.43218, 6447.0],
          [-84.44501, 42.43432, 6713.0],
          [-84.52076, 42.43629, 6980.0],
          [-84.5966, 42.43822, 7239.0],
          [-84.67023, 42.44005, 7315.0],
          [-84.75288, 42.44205, 7315.0],
          [-84.82978, 42.44382, 7315.0],
          [-84.90659, 42.44554, 7315.0],
          [-84.97912, 42.4471, 7315.0],
          [-85.04906, 42.44861, 7315.0],
          [-85.11964, 42.45007, 7254.0],
          [-85.1858, 42.45145, 7109.0],
          [-85.25678, 42.45282, 6949.0],
          [-85.32442, 42.4541, 6797.0],
          [-85.40771, 42.45564, 6599.0],
          [-85.47306, 42.4568, 6454.0],
          [-85.54351, 42.45802, 6302.0],
          [-85.61032, 42.45913, 6149.0],
          [-85.67528, 42.46016, 6096.0],
          [-85.74498, 42.46124, 6096.0],
          [-85.80884, 42.4622, 6096.0],
          [-85.87182, 42.46307, 6096.0],
          [-85.94406, 42.46407, 6096.0],
          [-86.01765, 42.46504, 6096.0],
          [-86.08325, 42.46588, 6096.0],
          [-86.14886, 42.46655, 6096.0],
          [-86.22204, 42.46593, 6073.0],
          [-86.29563, 42.46537, 5913.0],
          [-86.36864, 42.46472, 5654.0],
          [-86.44049, 42.46404, 5364.0],
          [-86.51477, 42.46339, 5098.0],
          [-86.58204, 42.46267, 4854.0],
          [-86.65147, 42.46193, 4610.0],
          [-86.71515, 42.4612, 4389.0],
          [-86.78075, 42.46039, 4153.0],
          [-86.84316, 42.4596, 3932.0],
          [-86.90847, 42.45877, 3696.0],
          [-86.97442, 42.45788, 3452.0],
          [-87.03861, 42.45699, 3238.0],
          [-87.08856, 42.45606, 3193.0],
          [-87.12907, 42.45016, 3124.0],
          [-87.15512, 42.4433, 2972.0],
          [-87.18276, 42.43501, 2789.0],
          [-87.20347, 42.41728, 2591.0],
          [-87.22258, 42.3821, 2355.0],
          [-87.24109, 42.34755, 2111.0],
          [-87.26053, 42.31151, 2065.0],
          [-87.2797, 42.27553, 1852.0],
          [-87.29718, 42.24303, 1669.0],
          [-87.31729, 42.20705, 1501.0],
          [-87.33694, 42.17285, 1494.0],
          [-87.35664, 42.13857, 1364.0],
          [-87.3765, 42.10468, 1219.0],
          [-87.3963, 42.07059, 1196.0],
          [-87.40793, 42.05348, 1196.0],
          [-87.4312, 42.03854, 1189.0],
          [-87.46676, 42.01926, 1189.0],
          [-87.4865, 42.00966, 1196.0],
          [-87.50828, 42.00525, 1196.0],
          [-87.53469, 42.00316, 1196.0],
          [-87.55535, 42.00215, 1196.0],
          [-87.58729, 42.00218, 1189.0],
          [-87.62491, 42.00232, 1189.0],
          [-87.66464, 42.0025, 1166.0],
          [-87.70404, 42.00266, 1013.0],
          [-87.73913, 42.00275, 861.0],
          [-87.77071, 42.00275, 732.0],
          [-87.80203, 42.00273, 594.0],
          [-87.81747, 42.00275, 526.0],
          [-87.83214, 42.0027, 465.0],
          [-87.8447, 42.00269, 411.0],
          [-87.8586, 42.00284, 351.0],
          [-87.87252, 42.00284, 297.0],
          [-87.88539, 42.00283, 244.0],
          [-87.89999, 42.00284, 183.0]
        ]
      }
    },
    {
      "type": "Feature",
      "properties": { "name": "KMSP Airport", "icon": "target", "type": null, "order": null },
      "geometry": { "type": "Point", "coordinates": [-93.2217778, 44.8819722, 0.0] }
    },
    {
      "type": "Feature",
      "properties": { "name": "RPA4472", "icon": null, "type": "flight", "order": 2.0 },
      "geometry": {
        "type": "LineString",
        "coordinates": [
          [-87.91994, 41.96903, 183.0],
          [-87.93546, 41.96898, 411.0],
          [-87.95086, 41.96915, 579.0],
          [-87.96453, 41.97364, 655.0],
          [-87.97321, 41.98565, 747.0],
          [-87.975, 42.0018, 892.0],
          [-87.97633, 42.0179, 1158.0],
          [-87.97781, 42.04607, 1394.0],
          [-87.97871, 42.07037, 1501.0],
          [-87.97903, 42.09062, 1509.0],
          [-87.97928, 42.11022, 1707.0],
          [-87.97958, 42.13115, 1981.0],
          [-87.98045, 42.1718, 2431.0],
          [-87.98088, 42.19788, 2697.0],
          [-87.97639, 42.21808, 2941.0],
          [-87.95648, 42.26105, 3444.0],
          [-87.94125, 42.29384, 3741.0],
          [-87.93607, 42.3192, 3962.0],
          [-87.93776, 42.34243, 4176.0],
          [-87.94244, 42.37042, 4275.0],
          [-87.95539, 42.40453, 4366.0],
          [-87.9782, 42.45483, 4679.0],
          [-88.00023, 42.50289, 5006.0],
          [-88.0131, 42.52515, 5182.0],
          [-88.03428, 42.54926, 5380.0],
          [-88.09113, 42.59679, 5784.0],
          [-88.13869, 42.63574, 6066.0],
          [-88.18619, 42.67456, 6317.0],
          [-88.23414, 42.71363, 6584.0],
          [-88.28307, 42.75343, 6873.0],
          [-88.33351, 42.7944, 7193.0],
          [-88.38207, 42.83378, 7407.0],
          [-88.41862, 42.86088, 7536.0],
          [-88.45158, 42.88164, 7658.0],
          [-88.51001, 42.91589, 7871.0],
          [-88.5689, 42.95044, 8070.0],
          [-88.6292, 42.98557, 8291.0],
          [-88.69199, 43.02205, 8435.0],
          [-88.75299, 43.05733, 8542.0],
          [-88.81814, 43.09492, 8534.0],
          [-88.88157, 43.13145, 8534.0],
          [-88.94701, 43.16915, 8534.0],
          [-89.01021, 43.20543, 8534.0],
          [-89.07517, 43.24255, 8534.0],
          [-89.14128, 43.28032, 8534.0],
          [-89.20253, 43.3152, 8534.0],
          [-89.2662, 43.3514, 8534.0],
          [-89.33213, 43.38881, 8534.0],
          [-89.39358, 43.4236, 8534.0],
          [-89.45801, 43.46001, 8534.0],
          [-89.52308, 43.49664, 8534.0],
          [-89.58984, 43.53421, 8534.0],
          [-89.65177, 43.56898, 8534.0],
          [-89.71487, 43.60432, 8534.0],
          [-89.7797, 43.64058, 8534.0],
          [-89.84664, 43.67789, 8534.0],
          [-89.90975, 43.713, 8534.0],
          [-89.97656, 43.75008, 8534.0],
          [-90.04068, 43.78559, 8534.0],
          [-90.10494, 43.82108, 8534.0],
          [-90.16826, 43.85603, 8534.0],
          [-90.23333, 43.89178, 8534.0],
          [-90.29848, 43.9276, 8534.0],
          [-90.36261, 43.96275, 8534.0],
          [-90.42925, 43.99913, 8534.0],
          [-90.49112, 44.03288, 8534.0],
          [-90.55762, 44.06909, 8534.0],
          [-90.62034, 44.10315, 8534.0],
          [-90.68492, 44.13812, 8534.0],
          [-90.75165, 44.17416, 8534.0],
          [-90.81533, 44.20852, 8534.0],
          [-90.88401, 44.24547, 8534.0],
          [-90.94436, 44.27788, 8534.0],
          [-91.0076, 44.31171, 8534.0],
          [-91.07532, 44.34794, 8534.0],
          [-91.13879, 44.38179, 8534.0],
          [-91.20421, 44.41661, 8534.0],
          [-91.26827, 44.45064, 8527.0],
          [-91.33209, 44.48442, 8260.0],
          [-91.39868, 44.51958, 7910.0],
          [-91.46033, 44.55208, 7590.0],
          [-91.52331, 44.58527, 7269.0],
          [-91.5853, 44.61777, 6942.0],
          [-91.64654, 44.64988, 6629.0],
          [-91.70991, 44.68303, 6309.0],
          [-91.76652, 44.71254, 6020.0],
          [-91.82478, 44.74287, 5715.0],
          [-91.86687, 44.76305, 5479.0],
          [-91.90554, 44.77652, 5326.0],
          [-91.98683, 44.7989, 4968.0],
          [-92.05217, 44.81672, 4679.0],
          [-92.10978, 44.83237, 4420.0],
          [-92.16705, 44.84752, 4168.0],
          [-92.22754, 44.85521, 3917.0],
          [-92.29542, 44.85947, 3635.0],
          [-92.34525, 44.86239, 3437.0],
          [-92.37593, 44.86211, 3307.0],
          [-92.43059, 44.85704, 3109.0],
          [-92.48807, 44.85117, 2865.0],
          [-92.54007, 44.84569, 2591.0],
          [-92.59371, 44.84005, 2316.0],
          [-92.64653, 44.83443, 2050.0],
          [-92.69795, 44.82892, 1798.0],
          [-92.74886, 44.82343, 1577.0],
          [-92.8006, 44.81786, 1334.0],
          [-92.85161, 44.81232, 1212.0],
          [-92.89751, 44.80733, 1219.0],
          [-92.94447, 44.8022, 1219.0],
          [-92.97194, 44.79922, 1212.0],
          [-92.9927, 44.79764, 1219.0],
          [-93.01038, 44.80142, 1181.0],
          [-93.02935, 44.80984, 1059.0],
          [-93.04629, 44.81735, 960.0],
          [-93.06146, 44.82394, 884.0],
          [-93.07689, 44.83054, 815.0],
          [-93.09344, 44.83763, 739.0],
          [-93.10723, 44.84358, 671.0],
          [-93.12039, 44.84931, 602.0],
          [-93.1328, 44.85493, 549.0],
          [-93.14417, 44.85978, 495.0],
          [-93.15733, 44.86528, 442.0],
          [-93.1691, 44.8705, 381.0],
          [-93.181, 44.87567, 328.0],
          [-93.19342, 44.88103, 267.0],
          [-93.20552, 44.88625, 244.0]
        ]
      }
    },
    {
      "type": "Feature",
      "properties": { "name": "KCLT Airport", "icon": "target", "type": null, "order": null },
      "geometry": { "type": "Point", "coordinates": [-80.9490687, 35.2137404, 0.0] }
    },
    {
      "type": "Feature",
      "properties": { "name": "DAL2929", "icon": null, "type": "flight", "order": 3.0 },
      "geometry": {
        "type": "LineString",
        "coordinates": [
          [-93.236, 44.86395, 373.0],
          [-93.23037, 44.85265, 610.0],
          [-93.21645, 44.84382, 648.0],
          [-93.19602, 44.83576, 701.0],
          [-93.17565, 44.82804, 754.0],
          [-93.14189, 44.81552, 869.0],
          [-93.09671, 44.7984, 1074.0],
          [-93.06411, 44.78642, 1234.0],
          [-93.03393, 44.77789, 1417.0],
          [-92.98933, 44.77121, 1692.0],
          [-92.93368, 44.76333, 2042.0],
          [-92.87694, 44.75541, 2370.0],
          [-92.84479, 44.75053, 2522.0],
          [-92.79582, 44.7372, 2781.0],
          [-92.7165, 44.71263, 3185.0],
          [-92.65699, 44.6954, 3315.0],
          [-92.5929, 44.67609, 3490.0],
          [-92.52793, 44.65533, 3680.0],
          [-92.46114, 44.63443, 3848.0],
          [-92.38946, 44.61209, 4046.0],
          [-92.31879, 44.59029, 4252.0],
          [-92.2433, 44.5676, 4481.0],
          [-92.19596, 44.5502, 4641.0],
          [-92.11369, 44.50905, 4945.0],
          [-92.04862, 44.47424, 5174.0],
          [-91.98209, 44.43909, 5364.0],
          [-91.9133, 44.40339, 5509.0],
          [-91.85322, 44.37231, 5685.0],
          [-91.81703, 44.35711, 5776.0],
          [-91.71459, 44.31931, 6043.0],
          [-91.63971, 44.29097, 6218.0],
          [-91.56167, 44.26136, 6378.0],
          [-91.48403, 44.23147, 6546.0],
          [-91.40599, 44.20111, 6706.0],
          [-91.32749, 44.17085, 6866.0],
          [-91.24995, 44.13931, 7033.0],
          [-91.17024, 44.10843, 7209.0],
          [-91.09142, 44.07848, 7376.0],
          [-91.00852, 44.04684, 7529.0],
          [-90.92937, 44.01617, 7650.0],
          [-90.84882, 43.98491, 7772.0],
          [-90.76715, 43.95281, 7986.0],
          [-90.68754, 43.92151, 8169.0],
          [-90.60425, 43.88864, 8230.0],
          [-90.52401, 43.85696, 8237.0],
          [-90.43984, 43.82359, 8329.0],
          [-90.36281, 43.79299, 8412.0],
          [-90.27549, 43.75809, 8489.0],
          [-90.19618, 43.72628, 8679.0],
          [-90.11379, 43.69309, 8854.0],
          [-90.03002, 43.65916, 9053.0],
          [-89.95235, 43.62776, 9197.0],
          [-89.86989, 43.59444, 9342.0],
          [-89.79322, 43.56279, 9449.0],
          [-89.75085, 43.54063, 9449.0],
          [-89.65412, 43.47285, 9449.0],
          [-89.58716, 43.42556, 9449.0],
          [-89.52236, 43.37947, 9456.0],
          [-89.45304, 43.32971, 9449.0],
          [-89.38555, 43.28111, 9456.0],
          [-89.31819, 43.23264, 9449.0],
          [-89.25136, 43.18432, 9449.0],
          [-89.18637, 43.13731, 9449.0],
          [-89.11994, 43.08907, 9449.0],
          [-89.05446, 43.04141, 9449.0],
          [-88.9903, 42.99467, 9449.0],
          [-88.92462, 42.9467, 9449.0],
          [-88.8587, 42.89813, 9456.0],
          [-88.7953, 42.85157, 9449.0],
          [-88.72977, 42.80342, 9449.0],
          [-88.66625, 42.75674, 9449.0],
          [-88.60255, 42.70953, 9449.0],
          [-88.54057, 42.66344, 9449.0],
          [-88.47827, 42.61697, 9449.0],
          [-88.41331, 42.56876, 9449.0],
          [-88.35074, 42.52171, 9449.0],
          [-88.29063, 42.4769, 9456.0],
          [-88.22639, 42.42874, 9449.0],
          [-88.16241, 42.38092, 9449.0],
          [-88.1, 42.33405, 9449.0],
          [-88.04086, 42.28922, 9449.0],
          [-87.98995, 42.251, 9449.0],
          [-87.94556, 42.22251, 9449.0],
          [-87.90498, 42.20233, 9449.0],
          [-87.82377, 42.16745, 9449.0],
          [-87.74449, 42.13275, 9449.0],
          [-87.66597, 42.0986, 9449.0],
          [-87.5885, 42.06491, 9449.0],
          [-87.50751, 42.02969, 9456.0],
          [-87.43003, 41.99608, 9449.0],
          [-87.34961, 41.96091, 9449.0],
          [-87.27277, 41.92704, 9456.0],
          [-87.19625, 41.89348, 9449.0],
          [-87.1174, 41.85873, 9449.0],
          [-87.04299, 41.82578, 9449.0],
          [-86.9665, 41.79185, 9449.0],
          [-86.88646, 41.75629, 9449.0],
          [-86.80872, 41.72154, 9479.0],
          [-86.73342, 41.68776, 9517.0],
          [-86.65505, 41.6528, 9594.0],
          [-86.57894, 41.61905, 9670.0],
          [-86.49917, 41.58307, 9731.0],
          [-86.42248, 41.54843, 9830.0],
          [-86.34564, 41.51356, 9952.0],
          [-86.26658, 41.47778, 10036.0],
          [-86.19253, 41.44443, 10066.0],
          [-86.11708, 41.41013, 10058.0],
          [-86.04061, 41.37521, 10066.0],
          [-85.96069, 41.33858, 10058.0],
          [-85.88718, 41.30464, 10058.0],
          [-85.80939, 41.26863, 10058.0],
          [-85.73475, 41.23439, 10058.0],
          [-85.6594, 41.19952, 10058.0],
          [-85.58368, 41.16414, 10058.0],
          [-85.50147, 41.12625, 10058.0],
          [-85.42999, 41.09299, 10058.0],
          [-85.35626, 41.05843, 10066.0],
          [-85.28075, 41.02318, 10058.0],
          [-85.20581, 40.98788, 10058.0],
          [-85.17107, 40.96816, 10058.0],
          [-85.13818, 40.94404, 10066.0],
          [-85.10834, 40.91658, 10058.0],
          [-85.03624, 40.8433, 10058.0],
          [-84.98455, 40.79051, 10066.0],
          [-84.93445, 40.73886, 10058.0],
          [-84.88593, 40.68883, 10058.0],
          [-84.83518, 40.63633, 10058.0],
          [-84.78561, 40.58513, 10058.0],
          [-84.73705, 40.53476, 10058.0],
          [-84.68848, 40.48397, 10058.0],
          [-84.63763, 40.43111, 10058.0],
          [-84.58767, 40.37899, 10058.0],
          [-84.53905, 40.32816, 10058.0],
          [-84.48967, 40.27616, 10058.0],
          [-84.43896, 40.22333, 10066.0],
          [-84.39067, 40.17286, 10066.0],
          [-84.34185, 40.12142, 10066.0],
          [-84.28755, 40.06411, 10066.0],
          [-84.24048, 40.01426, 10058.0],
          [-84.18954, 39.96016, 10058.0],
          [-84.13766, 39.90495, 10058.0],
          [-84.0878, 39.85185, 10058.0],
          [-84.03639, 39.79683, 10058.0],
          [-83.98639, 39.74346, 10066.0],
          [-83.93811, 39.69191, 10066.0],
          [-83.88696, 39.63728, 10066.0],
          [-83.83458, 39.58118, 10058.0],
          [-83.78771, 39.5305, 10066.0],
          [-83.73552, 39.47397, 10066.0],
          [-83.68573, 39.42041, 10066.0],
          [-83.63562, 39.36643, 10058.0],
          [-83.58637, 39.31279, 10058.0],
          [-83.53532, 39.25713, 10058.0],
          [-83.48642, 39.20393, 10058.0],
          [-83.43774, 39.15076, 10058.0],
          [-83.38725, 39.09554, 10058.0],
          [-83.33882, 39.04234, 10066.0],
          [-83.28807, 38.98686, 10058.0],
          [-83.23853, 38.93243, 10058.0],
          [-83.20346, 38.89238, 10058.0],
          [-83.17689, 38.85059, 10058.0],
          [-83.14728, 38.78966, 10058.0],
          [-83.11659, 38.72813, 10058.0],
          [-83.08548, 38.66478, 10066.0],
          [-83.05713, 38.60642, 10066.0],
          [-82.99084, 38.48464, 10058.0],
          [-82.95691, 38.42305, 10058.0],
          [-82.92588, 38.367, 10058.0],
          [-82.90128, 38.33274, 10058.0],
          [-82.86701, 38.29797, 10066.0],
          [-82.80279, 38.23672, 10058.0],
          [-82.74944, 38.1848, 10066.0],
          [-82.69584, 38.13268, 10066.0],
          [-82.64525, 38.0835, 10058.0],
          [-82.58811, 38.02792, 10058.0],
          [-82.53628, 37.97727, 10058.0],
          [-82.48249, 37.92476, 10066.0],
          [-82.43206, 37.8755, 10058.0],
          [-82.37776, 37.8222, 10066.0],
          [-82.3281, 37.77342, 9997.0],
          [-82.27482, 37.72119, 9876.0],
          [-82.22396, 37.67102, 9769.0],
          [-82.17212, 37.61965, 9655.0],
          [-82.12029, 37.56831, 9533.0],
          [-82.06757, 37.51598, 9426.0],
          [-82.01744, 37.46631, 9319.0],
          [-81.96535, 37.41455, 9213.0],
          [-81.91365, 37.36258, 9144.0],
          [-81.8634, 37.31236, 9144.0],
          [-81.81367, 37.26237, 9152.0],
          [-81.76073, 37.20958, 9144.0],
          [-81.71105, 37.1599, 9144.0],
          [-81.66161, 37.11035, 9144.0],
          [-81.60966, 37.05803, 9144.0],
          [-81.56071, 37.00875, 9144.0],
          [-81.50839, 36.95581, 9037.0],
          [-81.46123, 36.90816, 8915.0],
          [-81.41359, 36.85927, 8793.0],
          [-81.3628, 36.80832, 8664.0],
          [-81.31402, 36.75867, 8542.0],
          [-81.26739, 36.711, 8443.0],
          [-81.2166, 36.65913, 8329.0],
          [-81.1655, 36.6069, 8207.0],
          [-81.11451, 36.55459, 8077.0],
          [-81.06338, 36.50198, 7955.0],
          [-81.01273, 36.44952, 7833.0],
          [-80.96008, 36.39555, 7711.0],
          [-80.91051, 36.34468, 7582.0],
          [-80.86259, 36.29464, 7460.0],
          [-80.81303, 36.24316, 7346.0],
          [-80.76395, 36.19232, 7224.0],
          [-80.7141, 36.1406, 7094.0],
          [-80.66671, 36.09128, 6980.0],
          [-80.61937, 36.04181, 6858.0],
          [-80.57253, 35.99286, 6728.0],
          [-80.5254, 35.94345, 6607.0],
          [-80.49746, 35.91161, 6530.0],
          [-80.48378, 35.88849, 6477.0],
          [-80.47053, 35.84513, 6378.0],
          [-80.46889, 35.81571, 6286.0],
          [-80.47434, 35.78041, 6005.0],
          [-80.49063, 35.74844, 5837.0],
          [-80.50653, 35.72642, 5662.0],
          [-80.54724, 35.66927, 5250.0],
          [-80.57648, 35.62971, 4983.0],
          [-80.60623, 35.59103, 4732.0],
          [-80.63576, 35.55267, 4481.0],
          [-80.66419, 35.51545, 4229.0],
          [-80.69286, 35.47682, 3970.0],
          [-80.72105, 35.43892, 3719.0],
          [-80.74831, 35.4023, 3520.0],
          [-80.77318, 35.36899, 3368.0],
          [-80.79819, 35.33552, 3231.0],
          [-80.82262, 35.30289, 3086.0],
          [-80.83391, 35.28438, 3010.0],
          [-80.83563, 35.26176, 3010.0],
          [-80.83271, 35.23814, 3002.0],
          [-80.83117, 35.213, 2873.0],
          [-80.83051, 35.17795, 2499.0],
          [-80.82916, 35.15474, 2278.0],
          [-80.82613, 35.12329, 1943.0],
          [-80.82255, 35.08937, 1585.0],
          [-80.81978, 35.06119, 1326.0],
          [-80.82333, 35.04099, 1189.0],
          [-80.83912, 35.02823, 1173.0],
          [-80.8642, 35.02341, 1181.0],
          [-80.90192, 35.01878, 1181.0],
          [-80.92574, 35.01764, 1181.0],
          [-80.94372, 35.0259, 1120.0],
          [-80.95068, 35.04195, 991.0],
          [-80.95356, 35.06505, 930.0],
          [-80.95646, 35.09724, 785.0],
          [-80.95864, 35.12476, 625.0],
          [-80.96016, 35.14211, 533.0],
          [-80.96111, 35.15281, 472.0],
          [-80.96203, 35.163, 411.0],
          [-80.96312, 35.17427, 358.0],
          [-80.96386, 35.18413, 297.0],
          [-80.96492, 35.19489, 236.0],
          [-80.96588, 35.20738, 190.0]
        ]
      }
    },
    {
      "type": "Feature",
      "properties": { "name": "AAL370", "icon": null, "type": "flight", "order": 4.0 },
      "geometry": {
        "type": "LineString",
        "coordinates": [
          [-80.93622, 35.22574, 290.0],
          [-80.93733, 35.23832, 511.0],
          [-80.93856, 35.25117, 640.0],
          [-80.93977, 35.26483, 739.0],
          [-80.94113, 35.28027, 831.0],
          [-80.94347, 35.30182, 1013.0],
          [-80.94779, 35.33846, 1334.0],
          [-80.94575, 35.35898, 1570.0],
          [-80.94137, 35.38234, 1859.0],
          [-80.93324, 35.42285, 2332.0],
          [-80.92494, 35.46266, 2804.0],
          [-80.91331, 35.52462, 3246.0],
          [-80.90239, 35.55432, 3482.0],
          [-80.87983, 35.59649, 3924.0],
          [-80.85634, 35.64165, 4328.0],
          [-80.8322, 35.68964, 4808.0],
          [-80.81064, 35.73382, 5235.0],
          [-80.78826, 35.78042, 5624.0],
          [-80.774, 35.81158, 5860.0],
          [-80.7649, 35.84546, 6104.0],
          [-80.76233, 35.8737, 6286.0],
          [-80.76827, 35.9124, 6546.0],
          [-80.78178, 35.96466, 6881.0],
          [-80.79649, 36.01886, 7132.0],
          [-80.81177, 36.07375, 7391.0],
          [-80.82796, 36.13147, 7643.0],
          [-80.84436, 36.19022, 7902.0],
          [-80.86037, 36.24795, 8161.0],
          [-80.87702, 36.30832, 8435.0],
          [-80.89344, 36.36787, 8664.0],
          [-80.91076, 36.43044, 8900.0],
          [-80.92728, 36.48993, 9106.0],
          [-80.94423, 36.551, 9304.0],
          [-80.96106, 36.61138, 9487.0],
          [-80.97935, 36.67679, 9731.0],
          [-80.99729, 36.74098, 9754.0],
          [-81.01453, 36.80285, 9754.0],
          [-81.03229, 36.866, 9837.0],
          [-81.04942, 36.92688, 10112.0],
          [-81.067, 36.98936, 10356.0],
          [-81.08512, 37.05363, 10363.0],
          [-81.10203, 37.11373, 10363.0],
          [-81.11919, 37.17435, 10363.0],
          [-81.13666, 37.23653, 10363.0],
          [-81.15419, 37.29877, 10371.0],
          [-81.17165, 37.36017, 10584.0],
          [-81.18873, 37.4199, 10828.0],
          [-81.20574, 37.47925, 11034.0],
          [-81.22383, 37.54256, 11217.0],
          [-81.24051, 37.60094, 11384.0],
          [-81.25769, 37.66118, 11567.0],
          [-81.27539, 37.7233, 11582.0],
          [-81.2924, 37.78239, 11582.0],
          [-81.30952, 37.84068, 11582.0],
          [-81.32746, 37.90251, 11582.0],
          [-81.34459, 37.96175, 11582.0],
          [-81.36176, 38.02187, 11582.0],
          [-81.3789, 38.08173, 11582.0],
          [-81.39567, 38.14011, 11582.0],
          [-81.41311, 38.20007, 11582.0],
          [-81.43037, 38.25896, 11582.0],
          [-81.44825, 38.3204, 11582.0],
          [-81.46583, 38.38069, 11582.0],
          [-81.48309, 38.43961, 11582.0],
          [-81.50067, 38.49968, 11582.0],
          [-81.51837, 38.55996, 11582.0],
          [-81.53552, 38.61829, 11582.0],
          [-81.55319, 38.67833, 11582.0],
          [-81.57116, 38.73903, 11582.0],
          [-81.5885, 38.79766, 11582.0],
          [-81.60615, 38.85741, 11582.0],
          [-81.62358, 38.91605, 11582.0],
          [-81.64179, 38.9772, 11582.0],
          [-81.65967, 39.03675, 11582.0],
          [-81.67712, 39.09573, 11582.0],
          [-81.69452, 39.15416, 11582.0],
          [-81.71185, 39.21239, 11582.0],
          [-81.72974, 39.27221, 11521.0],
          [-81.7476, 39.33156, 11369.0],
          [-81.76527, 39.3902, 11217.0],
          [-81.78235, 39.44674, 11072.0],
          [-81.80005, 39.50553, 10942.0],
          [-81.81829, 39.56543, 10798.0],
          [-81.83765, 39.62969, 10638.0],
          [-81.85034, 39.67149, 10538.0],
          [-81.86134, 39.70876, 10455.0],
          [-81.8761, 39.7889, 10257.0],
          [-81.88727, 39.85169, 10112.0],
          [-81.89807, 39.91189, 9967.0],
          [-81.90991, 39.97787, 9822.0],
          [-81.92114, 40.04091, 9670.0],
          [-81.93158, 40.09959, 9540.0],
          [-81.94334, 40.16527, 9380.0],
          [-81.95465, 40.22758, 9243.0],
          [-81.96675, 40.29408, 9136.0],
          [-81.97823, 40.35753, 9144.0],
          [-81.99028, 40.42457, 9144.0],
          [-82.00195, 40.4886, 9144.0],
          [-82.01117, 40.53859, 9144.0],
          [-82.03647, 40.61813, 9144.0],
          [-82.06032, 40.67162, 9144.0],
          [-82.08067, 40.70369, 9068.0],
          [-82.11768, 40.759, 8908.0],
          [-82.15369, 40.8121, 8748.0],
          [-82.18535, 40.85885, 8603.0],
          [-82.21838, 40.90741, 8458.0],
          [-82.25677, 40.96376, 8298.0],
          [-82.30597, 41.036, 8085.0],
          [-82.34119, 41.08745, 7925.0],
          [-82.37711, 41.14035, 7780.0],
          [-82.42401, 41.20908, 7559.0],
          [-82.44952, 41.24464, 7391.0],
          [-82.47449, 41.2722, 7125.0],
          [-82.51737, 41.31837, 6774.0],
          [-82.55689, 41.36162, 6431.0],
          [-82.58629, 41.39342, 6187.0],
          [-82.62674, 41.43759, 5845.0],
          [-82.66681, 41.48135, 5464.0],
          [-82.7061, 41.52325, 5105.0],
          [-82.74653, 41.56649, 4808.0],
          [-82.78498, 41.60788, 4481.0],
          [-82.82337, 41.64922, 4191.0],
          [-82.85933, 41.68804, 3909.0],
          [-82.8967, 41.72775, 3604.0],
          [-82.93354, 41.76709, 3345.0],
          [-82.96975, 41.80586, 3322.0],
          [-82.98823, 41.82812, 3330.0],
          [-82.99503, 41.85214, 3330.0],
          [-82.99959, 41.89902, 3330.0],
          [-83.00414, 41.94717, 3330.0],
          [-83.00822, 41.99287, 3330.0],
          [-83.01207, 42.03928, 3261.0],
          [-83.01499, 42.08015, 3040.0],
          [-83.01768, 42.12135, 2758.0],
          [-83.02112, 42.15907, 2446.0],
          [-83.03084, 42.18033, 2301.0],
          [-83.05147, 42.2165, 2042.0],
          [-83.07156, 42.25122, 1768.0],
          [-83.0911, 42.28423, 1516.0],
          [-83.11304, 42.31901, 1227.0],
          [-83.13248, 42.34785, 1006.0],
          [-83.15177, 42.36214, 930.0],
          [-83.17321, 42.37203, 899.0],
          [-83.19704, 42.37953, 892.0],
          [-83.21965, 42.37515, 884.0],
          [-83.24207, 42.36621, 892.0],
          [-83.25889, 42.35532, 892.0],
          [-83.2749, 42.33284, 800.0],
          [-83.29272, 42.30885, 655.0],
          [-83.30901, 42.28679, 518.0],
          [-83.31482, 42.27882, 480.0],
          [-83.31705, 42.27586, 457.0],
          [-83.32406, 42.26646, 396.0],
          [-83.33143, 42.25621, 328.0],
          [-83.33947, 42.24536, 267.0],
          [-83.34747, 42.2346, 198.0],
          [-83.35589, 42.22321, 160.0]
        ]
      }
    }
  ]
}
