{
  "type": "FeatureCollection",
  "name": "geometry",
  "features": [
    {
      "type": "Feature",
      "properties": { "name": "KDTW Airport", "icon": "target", "type": null, "order": null },
      "geometry": { "type": "Point", "coordinates": [-83.3533933, 42.2124311, 0.0] }
    },
    {
      "type": "Feature",
      "properties": { "name": "KCLT Airport", "icon": "target", "type": null, "order": null },
      "geometry": { "type": "Point", "coordinates": [-80.9490687, 35.2137404, 0.0] }
    },
    {
      "type": "Feature",
      "properties": { "name": "AAL1033", "icon": null, "type": "flight", "order": 1.0 },
      "geometry": {
        "type": "LineString",
        "coordinates": [
          [-83.36426, 42.21203, 312.0],
          [-83.37169, 42.20316, 533.0],
          [-83.37965, 42.19341, 739.0],
          [-83.38655, 42.18247, 869.0],
          [-83.39435, 42.17093, 1029.0],
          [-83.40646, 42.15816, 1227.0],
          [-83.42411, 42.14188, 1501.0],
          [-83.43375, 42.12512, 1753.0],
          [-83.43392, 42.10762, 2042.0],
          [-83.43224, 42.07475, 2515.0],
          [-83.43036, 42.03882, 3002.0],
          [-83.42824, 42.00087, 3322.0],
          [-83.42612, 41.9577, 3749.0],
          [-83.42424, 41.91861, 4199.0],
          [-83.42749, 41.89208, 4542.0],
          [-83.43873, 41.84807, 5090.0],
          [-83.4503, 41.80251, 5654.0],
          [-83.46245, 41.75533, 5959.0],
          [-83.47514, 41.70536, 6347.0],
          [-83.48849, 41.65252, 6744.0],
          [-83.50191, 41.59922, 7094.0],
          [-83.51975, 41.52827, 7551.0],
          [-83.52899, 41.49122, 7765.0],
          [-83.54368, 41.4327, 8138.0],
          [-83.55458, 41.38939, 8405.0],
          [-83.56963, 41.3295, 8534.0],
          [-83.58398, 41.27225, 8534.0],
          [-83.59357, 41.23398, 8534.0],
          [-83.60931, 41.17081, 8534.0],
          [-83.62381, 41.11219, 8534.0],
          [-83.63767, 41.05623, 8534.0],
          [-83.65198, 40.99869, 8534.0],
          [-83.66656, 40.93991, 8534.0],
          [-83.68054, 40.88329, 8534.0],
          [-83.69497, 40.82473, 8534.0],
          [-83.70929, 40.7666, 8534.0],
          [-83.7235, 40.70858, 8565.0],
          [-83.73786, 40.65011, 8839.0],
          [-83.75209, 40.59215, 8839.0],
          [-83.75995, 40.53387, 8847.0],
          [-83.75897, 40.49689, 8839.0],
          [-83.75714, 40.43555, 8839.0],
          [-83.75546, 40.37369, 8839.0],
          [-83.75366, 40.31035, 8839.0],
          [-83.75178, 40.24711, 8839.0],
          [-83.74988, 40.18286, 8839.0],
          [-83.74803, 40.11956, 8839.0],
          [-83.74641, 40.05601, 8839.0],
          [-83.74497, 39.99638, 8839.0],
          [-83.74341, 39.93224, 8839.0],
          [-83.7417, 39.8712, 8839.0],
          [-83.73994, 39.81102, 8839.0],
          [-83.73797, 39.74794, 8839.0],
          [-83.7359, 39.68215, 8839.0],
          [-83.73407, 39.61968, 8839.0],
          [-83.73236, 39.55591, 8839.0],
          [-83.73065, 39.49175, 8839.0],
          [-83.7289, 39.42819, 8832.0],
          [-83.72728, 39.37051, 8832.0],
          [-83.72597, 39.31476, 8832.0],
          [-83.72473, 39.26253, 8839.0],
          [-83.72316, 39.2092, 8839.0],
          [-83.72149, 39.15646, 8839.0],
          [-83.72003, 39.10388, 8839.0],
          [-83.71851, 39.06198, 8839.0],
          [-83.711, 39.02241, 8839.0],
          [-83.69976, 38.99208, 8839.0],
          [-83.65814, 38.92007, 8839.0],
          [-83.62677, 38.86819, 8839.0],
          [-83.59692, 38.81889, 8839.0],
          [-83.56537, 38.76689, 8839.0],
          [-83.5351, 38.71657, 8839.0],
          [-83.50433, 38.66533, 8839.0],
          [-83.47305, 38.61324, 8839.0],
          [-83.44271, 38.56297, 8839.0],
          [-83.4137, 38.51476, 8839.0],
          [-83.38184, 38.4616, 8839.0],
          [-83.35166, 38.41118, 8839.0],
          [-83.32103, 38.35956, 8839.0],
          [-83.29165, 38.31021, 8839.0],
          [-83.26129, 38.25929, 8839.0],
          [-83.2302, 38.20692, 8839.0],
          [-83.20018, 38.15631, 8839.0],
          [-83.16752, 38.10124, 8839.0],
          [-83.13671, 38.04929, 8839.0],
          [-83.10777, 38.00038, 8839.0],
          [-83.07742, 37.94859, 8839.0],
          [-83.04798, 37.89841, 8839.0],
          [-83.01855, 37.84855, 8839.0],
          [-82.9881, 37.79651, 8847.0],
          [-82.95549, 37.74092, 8854.0],
          [-82.91806, 37.67724, 8847.0],
          [-82.88032, 37.6129, 8839.0],
          [-82.84975, 37.56551, 8839.0],
          [-82.79583, 37.50847, 8839.0],
          [-82.73022, 37.45467, 8839.0],
          [-82.67276, 37.40767, 8748.0],
          [-82.61086, 37.35682, 8595.0],
          [-82.54882, 37.306, 8451.0],
          [-82.48714, 37.25557, 8298.0],
          [-82.42923, 37.20813, 8230.0],
          [-82.3631, 37.15384, 8214.0],
          [-82.30867, 37.10898, 8222.0],
          [-82.25639, 37.06517, 8222.0],
          [-82.20478, 37.01029, 8230.0],
          [-82.173, 36.96616, 8230.0],
          [-82.13765, 36.91585, 8230.0],
          [-82.10447, 36.86839, 8230.0],
          [-82.07073, 36.81938, 8230.0],
          [-82.03725, 36.77091, 8230.0],
          [-82.00624, 36.72565, 8039.0],
          [-81.97231, 36.67589, 7818.0],
          [-81.94118, 36.63016, 7673.0],
          [-81.90948, 36.58356, 7597.0],
          [-81.87796, 36.53737, 7513.0],
          [-81.84752, 36.49265, 7437.0],
          [-81.8163, 36.44696, 7361.0],
          [-81.78577, 36.40247, 7315.0],
          [-81.75362, 36.355, 7308.0],
          [-81.71917, 36.30414, 7010.0],
          [-81.68919, 36.25944, 6728.0],
          [-81.6581, 36.21303, 6431.0],
          [-81.62653, 36.16608, 6203.0],
          [-81.59791, 36.12384, 6043.0],
          [-81.56965, 36.08171, 5814.0],
          [-81.54196, 36.04028, 5578.0],
          [-81.51405, 35.99852, 5090.0],
          [-81.48491, 35.95518, 4702.0],
          [-81.45447, 35.91014, 4442.0],
          [-81.42938, 35.87288, 4321.0],
          [-81.40419, 35.83475, 4214.0],
          [-81.38099, 35.79928, 4084.0],
          [-81.36095, 35.7693, 3955.0],
          [-81.34111, 35.74164, 3818.0],
          [-81.32057, 35.71339, 3581.0],
          [-81.30014, 35.68446, 3360.0],
          [-81.28644, 35.66614, 3246.0],
          [-81.26739, 35.65194, 3086.0],
          [-81.24636, 35.64551, 3010.0],
          [-81.22473, 35.6451, 2949.0],
          [-81.19878, 35.64719, 2941.0],
          [-81.15945, 35.64998, 2789.0],
          [-81.12129, 35.65264, 2637.0],
          [-81.08459, 35.65517, 2568.0],
          [-81.04673, 35.65785, 2499.0],
          [-81.02045, 35.65961, 2393.0],
          [-81.00031, 35.65256, 2294.0],
          [-80.99384, 35.64053, 2217.0],
          [-80.98759, 35.62182, 2202.0],
          [-80.98469, 35.60756, 2195.0],
          [-80.98379, 35.5958, 2187.0],
          [-80.98291, 35.57213, 2111.0],
          [-80.98139, 35.55148, 2111.0],
          [-80.97911, 35.52695, 1974.0],
          [-80.97701, 35.50302, 1814.0],
          [-80.97496, 35.47952, 1707.0],
          [-80.97296, 35.45599, 1539.0],
          [-80.9709, 35.43301, 1425.0],
          [-80.96889, 35.40967, 1273.0],
          [-80.96695, 35.38641, 1135.0],
          [-80.96489, 35.36325, 998.0],
          [-80.96299, 35.34088, 869.0],
          [-80.96128, 35.32054, 754.0],
          [-80.95968, 35.30196, 648.0],
          [-80.95819, 35.28515, 549.0],
          [-80.95734, 35.27582, 495.0],
          [-80.95665, 35.2668, 442.0],
          [-80.95585, 35.25769, 389.0],
          [-80.95498, 35.24819, 335.0],
          [-80.95416, 35.23855, 282.0],
          [-80.95332, 35.22849, 229.0]
        ]
      }
    },
    {
      "type": "Feature",
      "properties": { "name": "KALB Airport", "icon": "target", "type": null, "order": null },
      "geometry": { "type": "Point", "coordinates": [-73.80198, 42.7491161, 0.0] }
    },
    {
      "type": "Feature",
      "properties": { "name": "AAL1858", "icon": null, "type": "flight", "order": 2.0 },
      "geometry": {
        "type": "LineString",
        "coordinates": [
          [-80.95141, 35.20084, 419.0],
          [-80.95167, 35.19098, 617.0],
          [-80.94624, 35.18064, 739.0],
          [-80.93454, 35.17232, 815.0],
          [-80.91883, 35.16184, 922.0],
          [-80.90429, 35.15197, 1052.0],
          [-80.86935, 35.12869, 1486.0],
          [-80.84688, 35.11432, 1791.0],
          [-80.82143, 35.10681, 2042.0],
          [-80.79413, 35.1107, 2362.0],
          [-80.75998, 35.1204, 2667.0],
          [-80.68791, 35.14046, 3200.0],
          [-80.63232, 35.15574, 3360.0],
          [-80.57194, 35.17241, 3574.0],
          [-80.50901, 35.18953, 3909.0],
          [-80.44408, 35.20715, 4290.0],
          [-80.37477, 35.22594, 4633.0],
          [-80.30766, 35.24409, 4976.0],
          [-80.24017, 35.26225, 5326.0],
          [-80.16764, 35.28177, 5593.0],
          [-80.0981, 35.30047, 5921.0],
          [-80.02389, 35.32179, 6233.0],
          [-79.95592, 35.34192, 6561.0],
          [-79.88153, 35.36366, 6843.0],
          [-79.81058, 35.38435, 7102.0],
          [-79.73688, 35.40582, 7323.0],
          [-79.65929, 35.42825, 7513.0],
          [-79.58379, 35.44999, 7711.0],
          [-79.5056, 35.47261, 7887.0],
          [-79.46119, 35.48991, 8016.0],
          [-79.42366, 35.51385, 8146.0],
          [-79.39545, 35.54045, 8268.0],
          [-79.34098, 35.59431, 8481.0],
          [-79.28976, 35.64468, 8679.0],
          [-79.23609, 35.69737, 8900.0],
          [-79.18425, 35.74816, 9091.0],
          [-79.1302, 35.80109, 9289.0],
          [-79.07696, 35.8531, 9456.0],
          [-79.02448, 35.90425, 9662.0],
          [-78.97189, 35.95551, 9830.0],
          [-78.91623, 36.00966, 10005.0],
          [-78.86331, 36.06109, 10196.0],
          [-78.8106, 36.11206, 10348.0],
          [-78.75713, 36.16369, 10546.0],
          [-78.70553, 36.21354, 10721.0],
          [-78.65147, 36.26582, 10858.0],
          [-78.59818, 36.31726, 10965.0],
          [-78.54377, 36.36959, 11057.0],
          [-78.49016, 36.42096, 11163.0],
          [-78.43426, 36.47442, 11270.0],
          [-78.37833, 36.52791, 11278.0],
          [-78.32211, 36.58145, 11278.0],
          [-78.2678, 36.63318, 11278.0],
          [-78.2127, 36.68555, 11278.0],
          [-78.15903, 36.7364, 11278.0],
          [-78.10315, 36.78949, 11285.0],
          [-78.04839, 36.84121, 11278.0],
          [-77.99087, 36.89549, 11285.0],
          [-77.92696, 36.95567, 11278.0],
          [-77.87336, 37.00605, 11270.0],
          [-77.81856, 37.05748, 11278.0],
          [-77.76211, 37.11031, 11278.0],
          [-77.70688, 37.16203, 11285.0],
          [-77.65083, 37.21437, 11293.0],
          [-77.59309, 37.26805, 11293.0],
          [-77.54103, 37.31637, 11278.0],
          [-77.484, 37.36935, 11278.0],
          [-77.43234, 37.41733, 11278.0],
          [-77.37802, 37.46748, 11194.0],
          [-77.32715, 37.51428, 11057.0],
          [-77.2745, 37.56276, 10912.0],
          [-77.22326, 37.60993, 10767.0],
          [-77.17475, 37.65495, 10668.0],
          [-77.12449, 37.70938, 10668.0],
          [-77.08288, 37.76536, 10668.0],
          [-77.04097, 37.82593, 10668.0],
          [-77.00247, 37.88136, 10668.0],
          [-76.96371, 37.93728, 10660.0],
          [-76.92405, 37.99448, 10660.0],
          [-76.88561, 38.04956, 10668.0],
          [-76.84545, 38.10672, 10676.0],
          [-76.8062, 38.16283, 10676.0],
          [-76.76476, 38.22027, 10668.0],
          [-76.71881, 38.27211, 10668.0],
          [-76.67826, 38.31056, 10676.0],
          [-76.62432, 38.36049, 10668.0],
          [-76.57017, 38.41053, 10668.0],
          [-76.51837, 38.45853, 10668.0],
          [-76.46637, 38.50717, 10668.0],
          [-76.41223, 38.55754, 10668.0],
          [-76.35773, 38.6081, 10668.0],
          [-76.30444, 38.6574, 10668.0],
          [-76.24969, 38.70805, 10668.0],
          [-76.19484, 38.75862, 10668.0],
          [-76.13866, 38.8103, 10668.0],
          [-76.08647, 38.85828, 10668.0],
          [-76.03253, 38.9078, 10668.0],
          [-75.97673, 38.95871, 10668.0],
          [-75.93726, 38.9922, 10676.0],
          [-75.87803, 39.04198, 10676.0],
          [-75.82379, 39.08759, 10676.0],
          [-75.76691, 39.13521, 10668.0],
          [-75.7081, 39.18439, 10660.0],
          [-75.65126, 39.23177, 10660.0],
          [-75.59167, 39.28134, 10668.0],
          [-75.53473, 39.32863, 10668.0],
          [-75.47739, 39.37628, 10668.0],
          [-75.41901, 39.42472, 10668.0],
          [-75.36096, 39.47257, 10668.0],
          [-75.3031, 39.52025, 10668.0],
          [-75.24626, 39.56685, 10668.0],
          [-75.18793, 39.61474, 10668.0],
          [-75.12654, 39.66508, 10668.0],
          [-75.06821, 39.71613, 10668.0],
          [-75.00983, 39.7679, 10668.0],
          [-74.95446, 39.81693, 10668.0],
          [-74.8978, 39.86714, 10660.0],
          [-74.85767, 39.90439, 10668.0],
          [-74.80994, 39.95535, 10668.0],
          [-74.75769, 40.00992, 10660.0],
          [-74.68549, 40.07007, 10668.0],
          [-74.64854, 40.09838, 10668.0],
          [-74.60272, 40.13855, 10668.0],
          [-74.54413, 40.19101, 10668.0],
          [-74.49074, 40.23864, 10676.0],
          [-74.43269, 40.2904, 10676.0],
          [-74.37811, 40.33887, 10676.0],
          [-74.32313, 40.3876, 10645.0],
          [-74.26596, 40.4383, 10500.0],
          [-74.20789, 40.48975, 10348.0],
          [-74.15235, 40.53876, 10036.0],
          [-74.09906, 40.58574, 9578.0],
          [-74.04305, 40.63498, 9167.0],
          [-73.98792, 40.68329, 8748.0],
          [-73.93343, 40.73093, 8374.0],
          [-73.88162, 40.77622, 7986.0],
          [-73.8302, 40.8213, 7635.0],
          [-73.77788, 40.86681, 7353.0],
          [-73.74854, 40.89502, 7308.0],
          [-73.7305, 40.92282, 7315.0],
          [-73.72003, 40.9649, 7308.0],
          [-73.72307, 41.04031, 7315.0],
          [-73.72577, 41.10237, 7315.0],
          [-73.72862, 41.16768, 7315.0],
          [-73.73145, 41.22954, 7315.0],
          [-73.73431, 41.29326, 7269.0],
          [-73.73706, 41.35524, 6934.0],
          [-73.7398, 41.41493, 6439.0],
          [-73.74242, 41.47179, 6119.0],
          [-73.74523, 41.53271, 5791.0],
          [-73.74784, 41.58963, 5509.0],
          [-73.75047, 41.64867, 5197.0],
          [-73.75307, 41.70587, 4961.0],
          [-73.75478, 41.7415, 4831.0],
          [-73.75728, 41.7963, 4602.0],
          [-73.75983, 41.84967, 4404.0],
          [-73.76239, 41.90643, 4244.0],
          [-73.76495, 41.96237, 4092.0],
          [-73.76745, 42.01639, 3947.0],
          [-73.77001, 42.07091, 3795.0],
          [-73.77249, 42.12396, 3658.0],
          [-73.775, 42.17953, 3490.0],
          [-73.77735, 42.23075, 3353.0],
          [-73.77677, 42.27143, 3284.0],
          [-73.77121, 42.30197, 3254.0],
          [-73.76202, 42.34451, 3200.0],
          [-73.75659, 42.36928, 3040.0],
          [-73.74796, 42.40783, 2781.0],
          [-73.73799, 42.45021, 2530.0],
          [-73.72906, 42.48776, 2256.0],
          [-73.71999, 42.52677, 1905.0],
          [-73.71065, 42.56653, 1547.0],
          [-73.70114, 42.60819, 1478.0],
          [-73.69866, 42.63629, 1440.0],
          [-73.69865, 42.66136, 1288.0],
          [-73.69897, 42.70139, 1006.0],
          [-73.7006, 42.7386, 884.0],
          [-73.70253, 42.77376, 876.0],
          [-73.70421, 42.8072, 876.0],
          [-73.7059, 42.84193, 846.0],
          [-73.70753, 42.8741, 701.0],
          [-73.70956, 42.89984, 587.0],
          [-73.7197, 42.91753, 572.0],
          [-73.73736, 42.92642, 572.0],
          [-73.76312, 42.92922, 572.0],
          [-73.78322, 42.92867, 579.0],
          [-73.79504, 42.9212, 572.0],
          [-73.80277, 42.91228, 572.0],
          [-73.8089, 42.90147, 572.0],
          [-73.81001, 42.88411, 564.0],
          [-73.80981, 42.868, 564.0],
          [-73.80922, 42.8535, 564.0],
          [-73.80857, 42.835, 533.0],
          [-73.80792, 42.82103, 434.0],
          [-73.80756, 42.81189, 389.0],
          [-73.80705, 42.8025, 320.0],
          [-73.80666, 42.79217, 267.0],
          [-73.80628, 42.78323, 213.0],
          [-73.8059, 42.77399, 160.0],
          [-73.80545, 42.76428, 107.0]
        ]
      }
    },
    {
      "type": "Feature",
      "properties": { "name": "KSYR Airport", "icon": "target", "type": null, "order": null },
      "geometry": { "type": "Point", "coordinates": [-76.1063203, 43.1111811, 0.0] }
    },
    {
      "type": "Feature",
      "properties": { "name": "AAL2146", "icon": null, "type": "flight", "order": 3.0 },
      "geometry": {
        "type": "LineString",
        "coordinates": [
          [-76.08843, 43.10948, 328.0],
          [-76.07313, 43.11007, 556.0],
          [-76.05694, 43.11072, 739.0],
          [-76.03965, 43.11147, 945.0],
          [-76.01996, 43.11127, 1120.0],
          [-75.99799, 43.10207, 1334.0],
          [-75.98543, 43.08596, 1501.0],
          [-75.98279, 43.06796, 1714.0],
          [-75.99269, 43.04764, 2126.0],
          [-76.02098, 43.0264, 2583.0],
          [-76.04679, 43.01093, 2880.0],
          [-76.10434, 42.97536, 3261.0],
          [-76.13864, 42.95352, 3627.0],
          [-76.17907, 42.92754, 3970.0],
          [-76.22148, 42.89996, 4465.0],
          [-76.26395, 42.87219, 4945.0],
          [-76.30778, 42.84357, 5372.0],
          [-76.34942, 42.81647, 5601.0],
          [-76.4003, 42.78319, 5822.0],
          [-76.4467, 42.75255, 6172.0],
          [-76.49655, 42.71979, 6454.0],
          [-76.54693, 42.68655, 6759.0],
          [-76.58157, 42.66339, 6934.0],
          [-76.60848, 42.64018, 7003.0],
          [-76.66478, 42.56845, 7018.0],
          [-76.70292, 42.51869, 7018.0],
          [-76.74103, 42.46872, 7148.0],
          [-76.77758, 42.42059, 7430.0],
          [-76.81041, 42.37761, 7620.0],
          [-76.85064, 42.32469, 7910.0],
          [-76.88788, 42.27576, 8108.0],
          [-76.92671, 42.22453, 8313.0],
          [-76.96778, 42.17024, 8489.0],
          [-77.00656, 42.11884, 8664.0],
          [-77.04088, 42.07558, 8801.0],
          [-77.08564, 42.02224, 9037.0],
          [-77.12869, 41.97057, 9342.0],
          [-77.17123, 41.91959, 9609.0],
          [-77.21357, 41.86885, 9754.0],
          [-77.25765, 41.81587, 9761.0],
          [-77.29923, 41.76578, 9754.0],
          [-77.3419, 41.7143, 9761.0],
          [-77.37364, 41.67608, 9754.0],
          [-77.41454, 41.62651, 9845.0],
          [-77.45673, 41.57524, 10020.0],
          [-77.51872, 41.50008, 10310.0],
          [-77.55268, 41.45868, 10462.0],
          [-77.59356, 41.4088, 10630.0],
          [-77.63641, 41.35638, 10798.0],
          [-77.67783, 41.30547, 10950.0],
          [-77.7207, 41.25298, 10980.0],
          [-77.76276, 41.20116, 10980.0],
          [-77.80579, 41.14806, 10973.0],
          [-77.84662, 41.09781, 10980.0],
          [-77.88983, 41.0446, 10980.0],
          [-77.93146, 40.99315, 10973.0],
          [-77.95465, 40.96582, 10973.0],
          [-77.98108, 40.93874, 10973.0],
          [-78.01485, 40.90871, 10965.0],
          [-78.06958, 40.868, 10965.0],
          [-78.09906, 40.84904, 10965.0],
          [-78.15892, 40.81039, 10980.0],
          [-78.21542, 40.77399, 10980.0],
          [-78.27222, 40.7373, 10980.0],
          [-78.32921, 40.70062, 10980.0],
          [-78.3862, 40.66357, 10980.0],
          [-78.44519, 40.62543, 10988.0],
          [-78.50418, 40.58727, 10988.0],
          [-78.55981, 40.55109, 10988.0],
          [-78.61951, 40.51213, 10980.0],
          [-78.67542, 40.4756, 10980.0],
          [-78.73252, 40.43821, 10973.0],
          [-78.79157, 40.39961, 10973.0],
          [-78.8479, 40.36253, 10973.0],
          [-78.90587, 40.32439, 10988.0],
          [-78.96411, 40.28598, 10988.0],
          [-79.01782, 40.25056, 10980.0],
          [-79.07758, 40.21111, 10980.0],
          [-79.13421, 40.17356, 10973.0],
          [-79.19043, 40.13626, 10980.0],
          [-79.245, 40.10019, 10980.0],
          [-79.2998, 40.06361, 10973.0],
          [-79.35537, 40.02655, 10965.0],
          [-79.40943, 39.99037, 10965.0],
          [-79.4643, 39.9535, 10965.0],
          [-79.5177, 39.91761, 10965.0],
          [-79.57166, 39.88135, 10965.0],
          [-79.62537, 39.84513, 10958.0],
          [-79.6824, 39.80672, 10965.0],
          [-79.73718, 39.76995, 10927.0],
          [-79.79474, 39.73112, 10759.0],
          [-79.8472, 39.69521, 10592.0],
          [-79.9004, 39.659, 10409.0],
          [-79.95879, 39.61935, 10279.0],
          [-80.01337, 39.58218, 10058.0],
          [-80.09656, 39.52546, 9769.0],
          [-80.15506, 39.48546, 9754.0],
          [-80.21069, 39.44734, 9761.0],
          [-80.26725, 39.40846, 9761.0],
          [-80.33344, 39.36294, 9754.0],
          [-80.38739, 39.32575, 9761.0],
          [-80.4469, 39.28455, 9754.0],
          [-80.50342, 39.24545, 9761.0],
          [-80.56059, 39.20581, 9754.0],
          [-80.6135, 39.16905, 9754.0],
          [-80.67159, 39.12859, 9754.0],
          [-80.72778, 39.08945, 9754.0],
          [-80.78406, 39.05021, 9761.0],
          [-80.83907, 39.01172, 9761.0],
          [-80.89722, 38.97093, 9761.0],
          [-80.9533, 38.93161, 9761.0],
          [-81.01239, 38.88997, 9761.0],
          [-81.06561, 38.85246, 9754.0],
          [-81.12207, 38.8126, 9616.0],
          [-81.17847, 38.7728, 9472.0],
          [-81.23404, 38.73335, 9449.0],
          [-81.27608, 38.70351, 9456.0],
          [-81.3446, 38.65484, 9456.0],
          [-81.40923, 38.60875, 9456.0],
          [-81.46558, 38.56848, 9456.0],
          [-81.52081, 38.52896, 9449.0],
          [-81.57581, 38.48955, 9449.0],
          [-81.63306, 38.44852, 9449.0],
          [-81.67326, 38.41891, 9449.0],
          [-81.70383, 38.39065, 9449.0],
          [-81.73004, 38.35785, 9449.0],
          [-81.7495, 38.32301, 9456.0],
          [-81.76282, 38.28442, 9456.0],
          [-81.76803, 38.19434, 9464.0],
          [-81.7673, 38.12652, 9456.0],
          [-81.76628, 38.05431, 9449.0],
          [-81.7654, 37.98958, 9441.0],
          [-81.76446, 37.91757, 9449.0],
          [-81.76358, 37.85577, 9449.0],
          [-81.76265, 37.78807, 9456.0],
          [-81.76189, 37.72627, 9456.0],
          [-81.76097, 37.65904, 9426.0],
          [-81.76002, 37.59586, 9274.0],
          [-81.75906, 37.52888, 9159.0],
          [-81.75804, 37.45928, 9144.0],
          [-81.75716, 37.39201, 9152.0],
          [-81.75619, 37.3234, 9152.0],
          [-81.7553, 37.25566, 9144.0],
          [-81.75429, 37.18982, 9152.0],
          [-81.75357, 37.12262, 9152.0],
          [-81.75949, 37.0318, 9152.0],
          [-81.76455, 36.96527, 9129.0],
          [-81.76987, 36.90038, 8931.0],
          [-81.77592, 36.83269, 8702.0],
          [-81.7816, 36.76813, 8473.0],
          [-81.78714, 36.7049, 8252.0],
          [-81.79287, 36.63904, 8016.0],
          [-81.79812, 36.57768, 7788.0],
          [-81.80321, 36.51809, 7567.0],
          [-81.80712, 36.46976, 7384.0],
          [-81.80305, 36.43694, 7330.0],
          [-81.78766, 36.40379, 7277.0],
          [-81.76569, 36.37084, 7079.0],
          [-81.72864, 36.3167, 6607.0],
          [-81.69313, 36.26413, 6149.0],
          [-81.65789, 36.21181, 5799.0],
          [-81.6224, 36.15903, 5486.0],
          [-81.58728, 36.10675, 5220.0],
          [-81.55356, 36.05662, 4945.0],
          [-81.51855, 36.0042, 4671.0],
          [-81.48394, 35.95262, 4404.0],
          [-81.45416, 35.90821, 4275.0],
          [-81.42557, 35.86546, 4161.0],
          [-81.39879, 35.82523, 3909.0],
          [-81.37321, 35.78636, 3627.0],
          [-81.34686, 35.7483, 3459.0],
          [-81.32758, 35.72503, 3322.0],
          [-81.27896, 35.68476, 3040.0],
          [-81.24454, 35.65655, 2812.0],
          [-81.20928, 35.62775, 2583.0],
          [-81.17191, 35.59735, 2294.0],
          [-81.13827, 35.5697, 2080.0],
          [-81.10331, 35.54114, 1852.0],
          [-81.06915, 35.51312, 1646.0],
          [-81.03878, 35.48793, 1547.0],
          [-81.02049, 35.46824, 1494.0],
          [-81.00009, 35.4418, 1394.0],
          [-80.99063, 35.42863, 1334.0],
          [-80.98515, 35.41415, 1257.0],
          [-80.98186, 35.39055, 1212.0],
          [-80.97942, 35.36595, 1074.0],
          [-80.97736, 35.34073, 914.0],
          [-80.97525, 35.31633, 792.0],
          [-80.9735, 35.29609, 663.0],
          [-80.97239, 35.28319, 594.0],
          [-80.97164, 35.27454, 549.0],
          [-80.97087, 35.26523, 488.0],
          [-80.97006, 35.25564, 434.0],
          [-80.96924, 35.24619, 373.0],
          [-80.96848, 35.23716, 328.0],
          [-80.96761, 35.22725, 267.0]
        ]
      }
    },
    {
      "type": "Feature",
      "properties": { "name": "AAL419", "icon": null, "type": "flight", "order": 4.0 },
      "geometry": {
        "type": "LineString",
        "coordinates": [
          [-80.95035, 35.19672, 434.0],
          [-80.94799, 35.18555, 632.0],
          [-80.94658, 35.17361, 762.0],
          [-80.95472, 35.16293, 899.0],
          [-80.97158, 35.15811, 1052.0],
          [-80.99121, 35.15709, 1227.0],
          [-81.00889, 35.16272, 1387.0],
          [-81.02343, 35.17869, 1608.0],
          [-81.02852, 35.19922, 1897.0],
          [-81.03168, 35.22185, 2210.0],
          [-81.0355, 35.2597, 2705.0],
          [-81.04252, 35.32053, 3315.0],
          [-81.04797, 35.36485, 3680.0],
          [-81.05387, 35.41118, 4176.0],
          [-81.05982, 35.45892, 4686.0],
          [-81.06588, 35.50763, 5197.0],
          [-81.07209, 35.55795, 5723.0],
          [-81.07859, 35.61021, 6180.0],
          [-81.08495, 35.66111, 6568.0],
          [-81.09003, 35.71513, 6843.0],
          [-81.09412, 35.76678, 6988.0],
          [-81.09924, 35.83026, 7010.0],
          [-81.10353, 35.8829, 7125.0],
          [-81.12135, 35.94852, 7612.0],
          [-81.13655, 35.99908, 8001.0],
          [-81.15127, 36.05084, 8352.0],
          [-81.16568, 36.10428, 8679.0],
          [-81.17947, 36.15784, 8961.0],
          [-81.19376, 36.21308, 9213.0],
          [-81.20819, 36.26866, 9441.0],
          [-81.22303, 36.32583, 9670.0],
          [-81.23692, 36.38438, 9944.0],
          [-81.24968, 36.44371, 10279.0],
          [-81.26312, 36.50184, 10363.0],
          [-81.27892, 36.55591, 10363.0],
          [-81.29545, 36.61345, 10378.0],
          [-81.3101, 36.66733, 10691.0],
          [-81.32477, 36.72255, 11011.0],
          [-81.33923, 36.77623, 11171.0],
          [-81.35499, 36.83376, 11255.0],
          [-81.37082, 36.89136, 11331.0],
          [-81.3869, 36.94986, 11499.0],
          [-81.40244, 37.00731, 11781.0],
          [-81.41777, 37.06396, 11994.0],
          [-81.43419, 37.1235, 12123.0],
          [-81.44965, 37.17871, 12200.0],
          [-81.46602, 37.23724, 12200.0],
          [-81.48256, 37.29716, 12192.0],
          [-81.49834, 37.35516, 12192.0],
          [-81.5147, 37.41444, 12139.0],
          [-81.53059, 37.47148, 11979.0],
          [-81.54678, 37.53012, 11834.0],
          [-81.56256, 37.58702, 11681.0],
          [-81.57808, 37.64391, 11529.0],
          [-81.59487, 37.70219, 11377.0],
          [-81.61159, 37.76033, 11232.0],
          [-81.62788, 37.81857, 11095.0],
          [-81.64326, 37.87376, 11026.0],
          [-81.65941, 37.93142, 10965.0],
          [-81.67511, 37.98732, 10973.0],
          [-81.69189, 38.04645, 10973.0],
          [-81.70778, 38.10246, 10973.0],
          [-81.72485, 38.16306, 10973.0],
          [-81.74056, 38.22006, 10973.0],
          [-81.75679, 38.27883, 10973.0],
          [-81.77333, 38.3367, 10973.0],
          [-81.79058, 38.39575, 10973.0],
          [-81.80707, 38.45201, 10973.0],
          [-81.82444, 38.51198, 10973.0],
          [-81.84002, 38.56645, 10973.0],
          [-81.85638, 38.62408, 10973.0],
          [-81.87251, 38.68044, 10973.0],
          [-81.88863, 38.73637, 10973.0],
          [-81.90576, 38.79552, 10973.0],
          [-81.92267, 38.85408, 10973.0],
          [-81.93914, 38.91078, 10973.0],
          [-81.95652, 38.97084, 10973.0],
          [-81.9727, 39.0266, 10973.0],
          [-81.98918, 39.08299, 10866.0],
          [-82.00623, 39.14131, 10714.0],
          [-82.02297, 39.19977, 10569.0],
          [-82.03955, 39.25662, 10447.0],
          [-82.057, 39.31558, 10378.0],
          [-82.07432, 39.3744, 10363.0],
          [-82.09283, 39.43729, 10363.0],
          [-82.11035, 39.49645, 10363.0],
          [-82.12732, 39.55432, 10363.0],
          [-82.14563, 39.61568, 10363.0],
          [-82.16305, 39.67461, 10363.0],
          [-82.17994, 39.73201, 10363.0],
          [-82.1969, 39.78908, 10363.0],
          [-82.2149, 39.84979, 10363.0],
          [-82.23231, 39.90903, 10363.0],
          [-82.24939, 39.96625, 10363.0],
          [-82.26715, 40.02567, 10363.0],
          [-82.2915, 40.10619, 10234.0],
          [-82.3097, 40.16671, 10081.0],
          [-82.3269, 40.22401, 9936.0],
          [-82.34478, 40.28309, 9784.0],
          [-82.36218, 40.34052, 9647.0],
          [-82.3798, 40.39892, 9502.0],
          [-82.39807, 40.45967, 9342.0],
          [-82.40732, 40.5011, 9281.0],
          [-82.41956, 40.56045, 9197.0],
          [-82.43146, 40.61865, 9091.0],
          [-82.44309, 40.67572, 8931.0],
          [-82.45558, 40.73642, 8771.0],
          [-82.46692, 40.79073, 8626.0],
          [-82.47601, 40.83366, 8504.0],
          [-82.4876, 40.88539, 8359.0],
          [-82.51363, 40.95936, 8131.0],
          [-82.52637, 40.99475, 7955.0],
          [-82.54603, 41.04939, 7681.0],
          [-82.55841, 41.08383, 7513.0],
          [-82.5738, 41.12723, 7346.0],
          [-82.59166, 41.1776, 7041.0],
          [-82.60895, 41.2255, 6736.0],
          [-82.62683, 41.276, 6408.0],
          [-82.64417, 41.32439, 6104.0],
          [-82.66046, 41.3698, 5822.0],
          [-82.67742, 41.41753, 5517.0],
          [-82.69364, 41.46259, 5243.0],
          [-82.70982, 41.50694, 4968.0],
          [-82.72603, 41.5515, 4686.0],
          [-82.74216, 41.59639, 4420.0],
          [-82.75784, 41.64065, 4153.0],
          [-82.77356, 41.68378, 3871.0],
          [-82.78856, 41.72538, 3696.0],
          [-82.80065, 41.74672, 3650.0],
          [-82.82088, 41.76481, 3551.0],
          [-82.867, 41.7968, 3376.0],
          [-82.90034, 41.81918, 3246.0],
          [-82.93617, 41.84329, 3094.0],
          [-82.96681, 41.86459, 2979.0],
          [-82.98747, 41.87555, 2896.0],
          [-83.02112, 41.88171, 2720.0],
          [-83.05753, 41.88826, 2408.0],
          [-83.09548, 41.8945, 2149.0],
          [-83.13236, 41.89938, 1951.0],
          [-83.16855, 41.90442, 1707.0],
          [-83.18667, 41.91518, 1593.0],
          [-83.2029, 41.92722, 1494.0],
          [-83.22868, 41.94415, 1379.0],
          [-83.25471, 41.96116, 1303.0],
          [-83.28116, 41.97853, 1227.0],
          [-83.30735, 41.99566, 1151.0],
          [-83.33417, 42.01325, 1044.0],
          [-83.35845, 42.02913, 952.0],
          [-83.38005, 42.0428, 914.0],
          [-83.39678, 42.05379, 922.0],
          [-83.42156, 42.07022, 914.0],
          [-83.43411, 42.07988, 914.0],
          [-83.44478, 42.09334, 914.0],
          [-83.44774, 42.10389, 907.0],
          [-83.4457, 42.11707, 808.0],
          [-83.43854, 42.12817, 739.0],
          [-83.43205, 42.13715, 663.0],
          [-83.42125, 42.15134, 556.0],
          [-83.41675, 42.15752, 526.0],
          [-83.41517, 42.1598, 503.0],
          [-83.4091, 42.16804, 450.0],
          [-83.4029, 42.17647, 396.0],
          [-83.39594, 42.18606, 335.0],
          [-83.38916, 42.19514, 267.0],
          [-83.3823, 42.20448, 198.0]
        ]
      }
    }
  ]
}
