{
  "type": "FeatureCollection",
  "name": "geometry",
  "features": [
    {
      "type": "Feature",
      "properties": { "name": "YPAD Airport", "icon": "target", "type": null, "order": null },
      "geometry": { "type": "Point", "coordinates": [138.530556, -34.945, 0.0] }
    },
    {
      "type": "Feature",
      "properties": { "name": "YMML Airport", "icon": "target", "type": null, "order": null },
      "geometry": { "type": "Point", "coordinates": [144.843333, -37.673333, 0.0] }
    },
    {
      "type": "Feature",
      "properties": { "name": "QFA672", "icon": null, "type": "flight", "order": 1.0 },
      "geometry": {
        "type": "LineString",
        "coordinates": [
          [138.52106, -34.95589, 107.0],
          [138.50974, -34.96367, 251.0],
          [138.49703, -34.97209, 419.0],
          [138.48232, -34.98224, 526.0],
          [138.48196, -34.98244, 488.0],
          [138.46699, -34.99313, 724.0],
          [138.44919, -35.00598, 952.0],
          [138.43909, -35.01313, 1036.0],
          [138.42771, -35.02124, 1067.0],
          [138.42593, -35.02954, 1219.0],
          [138.42391, -35.03622, 1280.0],
          [138.42364, -35.04341, 1334.0],
          [138.42417, -35.05038, 1372.0],
          [138.43035, -35.06445, 1463.0],
          [138.43482, -35.07123, 1494.0],
          [138.44739, -35.08336, 1585.0],
          [138.45526, -35.08864, 1745.0],
          [138.46305, -35.09331, 1829.0],
          [138.48083, -35.1002, 2073.0],
          [138.52056, -35.10567, 2385.0],
          [138.56146, -35.10323, 2705.0],
          [138.65685, -35.09643, 3444.0],
          [138.67729, -35.09512, 3566.0],
          [138.68817, -35.09443, 3566.0],
          [138.71037, -35.09295, 3810.0],
          [138.72385, -35.0921, 3947.0],
          [138.73248, -35.09156, 3993.0],
          [138.78771, -35.088, 4435.0],
          [138.83249, -35.08827, 4717.0],
          [138.86864, -35.0929, 4907.0],
          [138.96875, -35.11615, 5418.0],
          [139.04022, -35.13302, 5814.0],
          [139.07835, -35.14205, 6035.0],
          [139.0903, -35.1449, 6096.0],
          [139.11436, -35.15059, 6248.0],
          [139.1506, -35.1591, 6431.0],
          [139.1748, -35.16485, 6553.0],
          [139.2586, -35.18459, 6904.0],
          [139.3336, -35.20216, 7193.0],
          [139.38874, -35.215, 7407.0],
          [139.41477, -35.22099, 7498.0],
          [139.41456, -35.22096, 7506.0],
          [139.4536, -35.23006, 7650.0],
          [139.48, -35.2362, 7742.0],
          [139.49421, -35.23988, 7788.0],
          [139.50585, -35.2432, 7833.0],
          [139.59017, -35.27312, 8138.0],
          [139.59385, -35.27452, 8138.0],
          [139.6046, -35.27847, 8169.0],
          [139.63145, -35.28847, 8260.0],
          [139.66557, -35.30107, 8435.0],
          [139.74265, -35.32961, 8809.0],
          [139.76914, -35.33948, 8931.0],
          [139.78156, -35.34407, 8961.0],
          [139.79403, -35.3487, 8992.0],
          [139.8065, -35.35334, 9053.0],
          [139.81552, -35.3567, 9083.0],
          [139.83158, -35.36263, 9114.0],
          [139.86917, -35.37658, 9235.0],
          [139.89443, -35.38595, 9327.0],
          [139.93063, -35.39934, 9418.0],
          [139.93237, -35.39997, 9418.0],
          [139.95771, -35.4093, 9449.0],
          [139.97309, -35.41498, 9449.0],
          [139.98288, -35.41859, 9449.0],
          [140.01884, -35.43185, 9449.0],
          [140.04584, -35.44181, 9449.0],
          [140.07107, -35.45108, 9449.0],
          [140.08354, -35.45565, 9449.0],
          [140.10899, -35.4649, 9449.0],
          [140.1215, -35.46951, 9449.0],
          [140.13398, -35.47404, 9449.0],
          [140.14634, -35.47869, 9449.0],
          [140.15915, -35.48326, 9449.0],
          [140.18445, -35.49249, 9449.0],
          [140.19686, -35.497, 9449.0],
          [140.20964, -35.50168, 9449.0],
          [140.22215, -35.50625, 9449.0],
          [140.24559, -35.51476, 9449.0],
          [140.24737, -35.51543, 9449.0],
          [140.27245, -35.52461, 9449.0],
          [140.27496, -35.5255, 9441.0],
          [140.285, -35.52916, 9449.0],
          [140.31013, -35.53837, 9449.0],
          [140.34925, -35.55258, 9441.0],
          [140.41068, -35.57491, 9449.0],
          [140.42467, -35.58, 9449.0],
          [140.51221, -35.61162, 9449.0],
          [140.52361, -35.61579, 9449.0],
          [140.54868, -35.62486, 9449.0],
          [140.58462, -35.6378, 9449.0],
          [140.58633, -35.63843, 9449.0],
          [140.58786, -35.63896, 9449.0],
          [140.61142, -35.64748, 9449.0],
          [140.62386, -35.65199, 9449.0],
          [140.63637, -35.65649, 9449.0],
          [140.64895, -35.66102, 9449.0],
          [140.67403, -35.6701, 9449.0],
          [140.6866, -35.67462, 9449.0],
          [140.69927, -35.67919, 9449.0],
          [140.72426, -35.68825, 9449.0],
          [140.74133, -35.69435, 9449.0],
          [140.76194, -35.70177, 9449.0],
          [140.81849, -35.72205, 9441.0],
          [140.86224, -35.7378, 9449.0],
          [140.88565, -35.74616, 9449.0],
          [140.89319, -35.74883, 9449.0],
          [140.89996, -35.75127, 9449.0],
          [140.98153, -35.78033, 9449.0],
          [141.00049, -35.78708, 9449.0],
          [141.02576, -35.7961, 9449.0],
          [141.03827, -35.80052, 9449.0],
          [141.06327, -35.80949, 9449.0],
          [141.07585, -35.81401, 9449.0],
          [141.08829, -35.81846, 9449.0],
          [141.11168, -35.82678, 9449.0],
          [141.13096, -35.83363, 9449.0],
          [141.1511, -35.84077, 9449.0],
          [141.20705, -35.8607, 9449.0],
          [141.28292, -35.88757, 9441.0],
          [141.28884, -35.88957, 9449.0],
          [141.30132, -35.89401, 9449.0],
          [141.32617, -35.90272, 9449.0],
          [141.35126, -35.91156, 9449.0],
          [141.3584, -35.91407, 9449.0],
          [141.38842, -35.92456, 9449.0],
          [141.41335, -35.93332, 9449.0],
          [141.42415, -35.93714, 9449.0],
          [141.43244, -35.94005, 9449.0],
          [141.45067, -35.94643, 9449.0],
          [141.47556, -35.95518, 9449.0],
          [141.48764, -35.95948, 9449.0],
          [141.50028, -35.96383, 9449.0],
          [141.51152, -35.96773, 9449.0],
          [141.53687, -35.97656, 9449.0],
          [141.56051, -35.98482, 9449.0],
          [141.56161, -35.98514, 9449.0],
          [141.58628, -35.99374, 9449.0],
          [141.62358, -36.00677, 9449.0],
          [141.64829, -36.01531, 9449.0],
          [141.6604, -36.0197, 9449.0],
          [141.68537, -36.02833, 9449.0],
          [141.70999, -36.03692, 9449.0],
          [141.73475, -36.0455, 9449.0],
          [141.74715, -36.04973, 9449.0],
          [141.77185, -36.05846, 9449.0],
          [141.78416, -36.06273, 9449.0],
          [141.79663, -36.06704, 9449.0],
          [141.80767, -36.07091, 9449.0],
          [141.82112, -36.07558, 9449.0],
          [141.8583, -36.0885, 9449.0],
          [141.88308, -36.09708, 9449.0],
          [141.95978, -36.12356, 9449.0],
          [142.03797, -36.15042, 9449.0],
          [142.12927, -36.18594, 9449.0],
          [142.20583, -36.21611, 9449.0],
          [142.27776, -36.2444, 9449.0],
          [142.35048, -36.27292, 9449.0],
          [142.42243, -36.30102, 9449.0],
          [142.49566, -36.32955, 9449.0],
          [142.56765, -36.35762, 9449.0],
          [142.64526, -36.38765, 9441.0],
          [142.71629, -36.4151, 9441.0],
          [142.78902, -36.44307, 9441.0],
          [142.86203, -36.47108, 9449.0],
          [142.93359, -36.49854, 9449.0],
          [143.00623, -36.52634, 9449.0],
          [143.08462, -36.55632, 9449.0],
          [143.16132, -36.5855, 9449.0],
          [143.23477, -36.61345, 9449.0],
          [143.30864, -36.6415, 9449.0],
          [143.38327, -36.66971, 9449.0],
          [143.45444, -36.69649, 9449.0],
          [143.53231, -36.72588, 9449.0],
          [143.60361, -36.75275, 9365.0],
          [143.67604, -36.77995, 8954.0],
          [143.74804, -36.80685, 8374.0],
          [143.82053, -36.83391, 7940.0],
          [143.89349, -36.86092, 7506.0],
          [143.96455, -36.88725, 7087.0],
          [144.03322, -36.91278, 6698.0],
          [144.09793, -36.93692, 6325.0],
          [144.16499, -36.96167, 5928.0],
          [144.23192, -36.98645, 5547.0],
          [144.29677, -37.01001, 5151.0],
          [144.35983, -37.0329, 4770.0],
          [144.42131, -37.0554, 4397.0],
          [144.48192, -37.07765, 4023.0],
          [144.54049, -37.09911, 3665.0],
          [144.56933, -37.11108, 3444.0],
          [144.59563, -37.13008, 3200.0],
          [144.60319, -37.1377, 3094.0],
          [144.60806, -37.14327, 3048.0],
          [144.6139, -37.15025, 2987.0],
          [144.64038, -37.18095, 2637.0],
          [144.67549, -37.22042, 2240.0],
          [144.67973, -37.22528, 2195.0],
          [144.68576, -37.23176, 2134.0],
          [144.69177, -37.23865, 2073.0],
          [144.69764, -37.2453, 2012.0],
          [144.70936, -37.25842, 1920.0],
          [144.7106, -37.25976, 1920.0],
          [144.72642, -37.27758, 1890.0],
          [144.73721, -37.28979, 1829.0],
          [144.7426, -37.29588, 1829.0],
          [144.7437, -37.29712, 1821.0],
          [144.75298, -37.3076, 1798.0],
          [144.76292, -37.31897, 1798.0],
          [144.7758, -37.33988, 1631.0],
          [144.78099, -37.36894, 1554.0],
          [144.78219, -37.37508, 1554.0],
          [144.78558, -37.39338, 1463.0],
          [144.78783, -37.40544, 1402.0],
          [144.78798, -37.40603, 1410.0],
          [144.78888, -37.41143, 1402.0],
          [144.79539, -37.43964, 1273.0],
          [144.79877, -37.45769, 1250.0],
          [144.80118, -37.47143, 1181.0],
          [144.80633, -37.49945, 1006.0],
          [144.80717, -37.50385, 975.0],
          [144.80822, -37.50964, 945.0],
          [144.80912, -37.51456, 914.0],
          [144.81077, -37.52404, 884.0],
          [144.81255, -37.53305, 823.0],
          [144.81334, -37.53741, 792.0],
          [144.81418, -37.54183, 762.0],
          [144.81641, -37.55417, 701.0],
          [144.81704, -37.55745, 671.0],
          [144.82142, -37.58055, 533.0],
          [144.82203, -37.58419, 518.0],
          [144.8227, -37.58758, 488.0],
          [144.82461, -37.59792, 457.0],
          [144.82546, -37.60245, 411.0],
          [144.8259, -37.60468, 396.0],
          [144.82727, -37.61197, 358.0],
          [144.82718, -37.61139, 366.0],
          [144.82772, -37.6147, 335.0],
          [144.82894, -37.62139, 305.0],
          [144.82897, -37.62154, 297.0],
          [144.82959, -37.62483, 274.0],
          [144.83023, -37.62815, 274.0],
          [144.83113, -37.63275, 229.0],
          [144.83206, -37.63828, 213.0],
          [144.83306, -37.6434, 168.0],
          [144.83522, -37.65477, 107.0],
          [144.83706, -37.66468, 84.0]
        ]
      }
    },
    {
      "type": "Feature",
      "properties": { "name": "KDFW Airport", "icon": "target", "type": null, "order": null },
      "geometry": { "type": "Point", "coordinates": [-97.0376947, 32.8972331, 0.0] }
    },
    {
      "type": "Feature",
      "properties": { "name": "QFA21", "icon": null, "type": "flight", "order": 2.0 },
      "geometry": {
        "type": "LineString",
        "coordinates": [
          [144.84017, -37.68162, 213.0],
          [144.84268, -37.69642, 442.0],
          [144.84506, -37.70894, 579.0],
          [144.84731, -37.72298, 655.0],
          [144.8496, -37.73785, 716.0],
          [144.85246, -37.75705, 792.0],
          [144.85503, -37.77406, 869.0],
          [144.85766, -37.7912, 975.0],
          [144.86502, -37.81169, 1120.0],
          [144.87916, -37.8247, 1250.0],
          [144.88431, -37.82744, 1303.0],
          [144.88587, -37.82814, 1311.0],
          [144.90115, -37.83243, 1433.0],
          [144.91606, -37.8331, 1524.0],
          [144.95677, -37.82909, 1821.0],
          [145.00556, -37.82355, 2172.0],
          [145.04114, -37.81968, 2408.0],
          [145.058, -37.8178, 2530.0],
          [145.0665, -37.81687, 2591.0],
          [145.08345, -37.81505, 2713.0],
          [145.09187, -37.81413, 2774.0],
          [145.10045, -37.81327, 2804.0],
          [145.10608, -37.8127, 2850.0],
          [145.11753, -37.81151, 2926.0],
          [145.14332, -37.80895, 3078.0],
          [145.1845, -37.80501, 3216.0],
          [145.20653, -37.8029, 3261.0],
          [145.24421, -37.79939, 3360.0],
          [145.28461, -37.79613, 3437.0],
          [145.32884, -37.79979, 3490.0],
          [145.36893, -37.80986, 3559.0],
          [145.40429, -37.82535, 3658.0],
          [145.42143, -37.83352, 3711.0],
          [145.48639, -37.86438, 4016.0],
          [145.54735, -37.89361, 4321.0],
          [145.5614, -37.90032, 4389.0],
          [145.5938, -37.91425, 4511.0],
          [145.64756, -37.92773, 4717.0],
          [145.68743, -37.93179, 4854.0],
          [145.70287, -37.93302, 4907.0],
          [145.76017, -37.93776, 5128.0],
          [145.80302, -37.94126, 5243.0],
          [145.81563, -37.94229, 5304.0],
          [145.82831, -37.9433, 5334.0],
          [145.83915, -37.94417, 5372.0],
          [145.85361, -37.94532, 5395.0],
          [145.89176, -37.94837, 5517.0],
          [145.9139, -37.95022, 5570.0],
          [145.99564, -37.95688, 5776.0],
          [146.07505, -37.96326, 5997.0],
          [146.16363, -37.97026, 6218.0],
          [146.20878, -37.97377, 6340.0],
          [146.2494, -37.97695, 6431.0],
          [146.27665, -37.97907, 6523.0],
          [146.29043, -37.9801, 6553.0],
          [146.30405, -37.98113, 6584.0],
          [146.3224, -37.98253, 6629.0],
          [146.40685, -37.98905, 6850.0],
          [146.44134, -37.99169, 6919.0],
          [146.48301, -37.99495, 7010.0],
          [146.48788, -37.99533, 7018.0],
          [146.5108, -37.99705, 7071.0],
          [146.55266, -38.00025, 7163.0],
          [146.57439, -38.00189, 7193.0],
          [146.65778, -38.00816, 7346.0],
          [146.72323, -38.01306, 7468.0],
          [146.74947, -38.01503, 7521.0],
          [146.7517, -38.01521, 7529.0],
          [146.76629, -38.01626, 7559.0],
          [146.79528, -38.01842, 7620.0],
          [146.80964, -38.01952, 7620.0],
          [146.83861, -38.02164, 7681.0],
          [146.85313, -38.02274, 7711.0],
          [146.92285, -38.02776, 7833.0],
          [147.01426, -38.0343, 7986.0],
          [147.02915, -38.03535, 8016.0],
          [147.05876, -38.03741, 8047.0],
          [147.08831, -38.03952, 8138.0],
          [147.10031, -38.04039, 8176.0],
          [147.13238, -38.04274, 8260.0],
          [147.16178, -38.0448, 8321.0],
          [147.1919, -38.04684, 8382.0],
          [147.20613, -38.0478, 8412.0],
          [147.22085, -38.04883, 8412.0],
          [147.23547, -38.04984, 8443.0],
          [147.25031, -38.05085, 8473.0],
          [147.26529, -38.05188, 8504.0],
          [147.27956, -38.05289, 8519.0],
          [147.29482, -38.05398, 8534.0],
          [147.30956, -38.05505, 8565.0],
          [147.33911, -38.05705, 8626.0],
          [147.36856, -38.05902, 8710.0],
          [147.38357, -38.06005, 8748.0],
          [147.4132, -38.06205, 8809.0],
          [147.45867, -38.06516, 8877.0],
          [147.51701, -38.06911, 8961.0],
          [147.53222, -38.07014, 8961.0],
          [147.54913, -38.07126, 8999.0],
          [147.56205, -38.07213, 9022.0],
          [147.60677, -38.07509, 9114.0],
          [147.63653, -38.07711, 9174.0],
          [147.63685, -38.07715, 9190.0],
          [147.65164, -38.07814, 9205.0],
          [147.66649, -38.07909, 9266.0],
          [147.68136, -38.08007, 9296.0],
          [147.71127, -38.08203, 9357.0],
          [147.72665, -38.08304, 9388.0],
          [147.81555, -38.08882, 9571.0],
          [147.90464, -38.09449, 9776.0],
          [147.99496, -38.10022, 9975.0],
          [148.06519, -38.10462, 10058.0],
          [148.09331, -38.10631, 10058.0],
          [148.10931, -38.1073, 10058.0],
          [148.13866, -38.1091, 10058.0],
          [148.15347, -38.11005, 10058.0],
          [148.16804, -38.11095, 10058.0],
          [148.18038, -38.11171, 10051.0],
          [148.19767, -38.11275, 10058.0],
          [148.27745, -38.11766, 10051.0],
          [148.35873, -38.1226, 10058.0],
          [148.36545, -38.12302, 10058.0],
          [148.38828, -38.12432, 10058.0],
          [148.40296, -38.12518, 10058.0],
          [148.43218, -38.12694, 10058.0],
          [148.44634, -38.12786, 10058.0],
          [148.46149, -38.12878, 10058.0],
          [148.50514, -38.13148, 10058.0],
          [148.53423, -38.13322, 10058.0],
          [148.56065, -38.13476, 10058.0],
          [148.57792, -38.13578, 10058.0],
          [148.60698, -38.13747, 10058.0],
          [148.62146, -38.13829, 10058.0],
          [148.65032, -38.1399, 10058.0],
          [148.66498, -38.14071, 10058.0],
          [148.67937, -38.14153, 10058.0],
          [148.70856, -38.1432, 10058.0],
          [148.73506, -38.14467, 10051.0],
          [148.82473, -38.1497, 10058.0],
          [148.83921, -38.15048, 10058.0],
          [148.85389, -38.15129, 10058.0],
          [148.89755, -38.15374, 10058.0],
          [148.90922, -38.15442, 10051.0],
          [148.92697, -38.15535, 10058.0],
          [148.94144, -38.15614, 10058.0],
          [148.97079, -38.15768, 10058.0],
          [148.9854, -38.15852, 10058.0],
          [148.9967, -38.15913, 10058.0],
          [149.00029, -38.15932, 10058.0],
          [149.0443, -38.16161, 10058.0],
          [149.07372, -38.1632, 10058.0],
          [149.17476, -38.16866, 10058.0],
          [149.17668, -38.16876, 10058.0],
          [149.2062, -38.17032, 10058.0],
          [149.22079, -38.17107, 10058.0],
          [149.25017, -38.17262, 10058.0],
          [149.26199, -38.17321, 10051.0],
          [149.29392, -38.17487, 10058.0],
          [149.32338, -38.17646, 10058.0],
          [149.33808, -38.17721, 10058.0],
          [149.35477, -38.1781, 10058.0],
          [149.38205, -38.17949, 10058.0],
          [149.39672, -38.18024, 10058.0],
          [149.41153, -38.18094, 10058.0],
          [149.42634, -38.1817, 10058.0],
          [149.45616, -38.18322, 10051.0],
          [149.47024, -38.18393, 10058.0],
          [149.54232, -38.18755, 10058.0],
          [149.61772, -38.1912, 10058.0],
          [149.63385, -38.19201, 10051.0],
          [149.64731, -38.19266, 10058.0],
          [149.66171, -38.19335, 10058.0],
          [149.69155, -38.19483, 10058.0],
          [149.72101, -38.19627, 10058.0],
          [149.7655, -38.19837, 10058.0],
          [149.79485, -38.19981, 10058.0],
          [149.81389, -38.2007, 10051.0],
          [149.83916, -38.20187, 10058.0],
          [149.85382, -38.20257, 10058.0],
          [149.8686, -38.20326, 10058.0],
          [149.91295, -38.20536, 10058.0],
          [149.9425, -38.20676, 10058.0],
          [149.972, -38.20813, 10058.0],
          [149.99538, -38.20919, 10058.0],
          [150.00181, -38.20948, 10058.0],
          [150.01644, -38.21013, 10058.0],
          [150.08364, -38.21301, 10051.0],
          [150.11963, -38.21459, 10058.0],
          [150.17265, -38.2169, 10051.0],
          [150.1931, -38.21785, 10058.0],
          [150.22259, -38.21916, 10058.0],
          [150.26696, -38.22111, 10058.0],
          [150.29647, -38.22251, 10058.0],
          [150.31106, -38.22324, 10058.0],
          [150.34026, -38.22478, 10058.0],
          [150.3749, -38.22688, 10051.0],
          [150.44304, -38.23206, 10058.0],
          [150.45783, -38.23324, 10058.0],
          [150.46696, -38.23396, 10058.0],
          [150.47253, -38.23437, 10058.0],
          [150.50203, -38.23673, 10058.0],
          [150.51671, -38.23787, 10058.0],
          [150.546, -38.24017, 10058.0],
          [150.55512, -38.24089, 10058.0],
          [150.59024, -38.24358, 10058.0],
          [150.61992, -38.24588, 10058.0],
          [150.64908, -38.24809, 10058.0],
          [150.67928, -38.25034, 10051.0],
          [150.69257, -38.25137, 10058.0],
          [150.72184, -38.25356, 10058.0],
          [150.73643, -38.25463, 10058.0],
          [150.76583, -38.25675, 10058.0],
          [150.79546, -38.25894, 10058.0],
          [150.80999, -38.25997, 10058.0],
          [150.83971, -38.26216, 10058.0],
          [150.85434, -38.26321, 10058.0],
          [150.85473, -38.26328, 10058.0],
          [150.86913, -38.26429, 10058.0],
          [150.89853, -38.26637, 10058.0],
          [150.9282, -38.26849, 10058.0],
          [150.94311, -38.26952, 10058.0],
          [150.95548, -38.27042, 10058.0],
          [150.97277, -38.27163, 10058.0],
          [151.01717, -38.27471, 10058.0],
          [151.04684, -38.27673, 10058.0],
          [151.04921, -38.27692, 10058.0],
          [151.06156, -38.27774, 10058.0],
          [151.09122, -38.2798, 10058.0],
          [151.10587, -38.28087, 10058.0],
          [151.12061, -38.28188, 10058.0],
          [151.13746, -38.28305, 10058.0],
          [151.22385, -38.28898, 10058.0],
          [151.225, -38.28905, 10058.0],
          [151.23893, -38.28999, 10058.0],
          [151.26803, -38.29197, 10058.0],
          [151.28309, -38.293, 10058.0],
          [151.29781, -38.29401, 10058.0],
          [151.31557, -38.29518, 10058.0],
          [151.32744, -38.29602, 10058.0],
          [151.37156, -38.29901, 10058.0],
          [151.40128, -38.30098, 10058.0],
          [151.41608, -38.30197, 10058.0],
          [151.4458, -38.30392, 10058.0],
          [151.46048, -38.30486, 10058.0],
          [151.47514, -38.30585, 10058.0],
          [151.51945, -38.30879, 10058.0],
          [151.53764, -38.31001, 10051.0],
          [151.54904, -38.31074, 10058.0],
          [151.57852, -38.31267, 10058.0],
          [151.59335, -38.31364, 10058.0],
          [151.62268, -38.31557, 10058.0],
          [151.6284, -38.31594, 10051.0],
          [151.63751, -38.31654, 10058.0],
          [151.6524, -38.3175, 10058.0],
          [151.68192, -38.31943, 10058.0],
          [151.69667, -38.32036, 10058.0],
          [151.7263, -38.32222, 10058.0],
          [151.74416, -38.32338, 10058.0],
          [151.75593, -38.32413, 10058.0],
          [151.77037, -38.32505, 10058.0],
          [151.80013, -38.32696, 10058.0],
          [151.82981, -38.32883, 10058.0],
          [151.84466, -38.32975, 10058.0],
          [151.87431, -38.33164, 10058.0],
          [151.88914, -38.33254, 10058.0],
          [151.90418, -38.33349, 10058.0],
          [151.93382, -38.33533, 10058.0],
          [151.94871, -38.33628, 10058.0],
          [151.95465, -38.33661, 10058.0],
          [151.97862, -38.3381, 10058.0],
          [152.02323, -38.34085, 10058.0],
          [152.04517, -38.34219, 10051.0],
          [152.05318, -38.34271, 10058.0],
          [152.06825, -38.34359, 10058.0],
          [152.09816, -38.34546, 10058.0],
          [152.11279, -38.34632, 10058.0],
          [152.12805, -38.34726, 10058.0],
          [152.13347, -38.3476, 10051.0],
          [152.14266, -38.34814, 10058.0],
          [152.15783, -38.34904, 10058.0],
          [152.18785, -38.35091, 10058.0],
          [152.20259, -38.35177, 10058.0],
          [152.21751, -38.35269, 10058.0],
          [152.23248, -38.35361, 10058.0],
          [152.26246, -38.35537, 10058.0],
          [152.27716, -38.35625, 10058.0],
          [152.29188, -38.35711, 10058.0],
          [152.39034, -38.36291, 10051.0],
          [152.41211, -38.36417, 10058.0],
          [152.42689, -38.36501, 10058.0],
          [152.45678, -38.36677, 10058.0],
          [152.47139, -38.36761, 10058.0],
          [152.48665, -38.36851, 10058.0],
          [152.49483, -38.36896, 10051.0],
          [152.53109, -38.37108, 10058.0],
          [152.56074, -38.37269, 10058.0],
          [152.58374, -38.37396, 10058.0],
          [152.58988, -38.37434, 10058.0],
          [152.63501, -38.37677, 10058.0],
          [152.64992, -38.3776, 10058.0],
          [152.66484, -38.3784, 10058.0],
          [152.67973, -38.37926, 10058.0],
          [152.69121, -38.37985, 10051.0],
          [152.7093, -38.38087, 10058.0],
          [152.72438, -38.38168, 10058.0],
          [152.73912, -38.38243, 10058.0],
          [152.79318, -38.38486, 10051.0],
          [152.8813, -38.38792, 10058.0],
          [152.91724, -38.38906, 10058.0],
          [152.94735, -38.39005, 10058.0],
          [152.97153, -38.39081, 10058.0],
          [152.99189, -38.39151, 10058.0],
          [153.02146, -38.39245, 10058.0],
          [153.0361, -38.39293, 10058.0],
          [153.12684, -38.39587, 10058.0],
          [153.20035, -38.39827, 10058.0],
          [153.22952, -38.39923, 10058.0],
          [153.24196, -38.39954, 10051.0],
          [153.27425, -38.40056, 10058.0],
          [153.36657, -38.4035, 10058.0],
          [153.45542, -38.40615, 10058.0],
          [153.54235, -38.40867, 10058.0],
          [153.63568, -38.41127, 10058.0],
          [153.70637, -38.41318, 10058.0],
          [153.72485, -38.4137, 10051.0],
          [153.73613, -38.41404, 10058.0],
          [153.75094, -38.41443, 10058.0],
          [153.7801, -38.41524, 10058.0],
          [153.83942, -38.41677, 10058.0],
          [153.967, -38.42001, 10051.0],
          [154.06909, -38.42249, 10058.0],
          [154.22156, -38.42613, 10058.0],
          [154.31201, -38.42817, 10058.0],
          [154.40021, -38.42999, 10051.0],
          [154.54211, -38.43292, 10279.0],
          [154.6477, -38.435, 10363.0],
          [154.67765, -38.43556, 10363.0],
          [154.69269, -38.43584, 10363.0],
          [154.72228, -38.43642, 10363.0],
          [154.75194, -38.43698, 10363.0],
          [154.7964, -38.43777, 10363.0],
          [154.82558, -38.43824, 10363.0],
          [154.84006, -38.43848, 10363.0],
          [155.45881, -38.44743, 10356.0],
          [155.62079, -38.44917, 10363.0],
          [155.78822, -38.44565, 10363.0],
          [163.11667, -37.96667, 10363.0],
          [165.9, -37.68333, 10363.0],
          [167.85, -37.45, 10363.0],
          [168.76667, -37.31667, 10363.0],
          [168.95, -37.28333, 10363.0],
          [169.15, -37.26667, 10363.0],
          [169.33333, -37.23333, 10363.0],
          [169.51667, -37.2, 10363.0],
          [169.7, -37.18333, 10363.0],
          [169.73555, -37.17243, 10668.0],
          [169.82461, -37.15887, 10668.0],
          [169.91344, -37.14523, 10668.0],
          [170.00051, -37.13182, 10660.0],
          [170.17804, -37.10427, 10660.0],
          [170.26629, -37.0905, 10660.0],
          [170.35652, -37.07634, 10668.0],
          [170.47002, -37.05814, 10668.0],
          [170.6206, -37.03407, 10668.0],
          [170.70825, -37.02013, 10668.0],
          [170.79608, -37.00619, 10660.0],
          [170.89806, -36.99001, 10668.0],
          [171.01426, -36.97141, 10660.0],
          [171.10609, -36.95652, 10660.0],
          [171.22409, -36.93727, 10660.0],
          [171.33656, -36.91862, 10668.0],
          [171.44535, -36.90052, 10660.0],
          [171.53366, -36.88581, 10660.0],
          [171.62131, -36.871, 10668.0],
          [171.72467, -36.85149, 10660.0],
          [171.80889, -36.83336, 10668.0],
          [171.94439, -36.80392, 10660.0],
          [172.03108, -36.78511, 10660.0],
          [172.11817, -36.7663, 10660.0],
          [172.20614, -36.74731, 10660.0],
          [172.29292, -36.72853, 10668.0],
          [172.37932, -36.70976, 10660.0],
          [172.46542, -36.69098, 10668.0],
          [172.55355, -36.67162, 10668.0],
          [172.64454, -36.65151, 10668.0],
          [172.72851, -36.63289, 10668.0],
          [172.81631, -36.61336, 10668.0],
          [172.90359, -36.59388, 10668.0],
          [172.99255, -36.57399, 10660.0],
          [173.07581, -36.55527, 10668.0],
          [173.1625, -36.53568, 10660.0],
          [173.25457, -36.51483, 10668.0],
          [173.33977, -36.49544, 10668.0],
          [173.42445, -36.47615, 10660.0],
          [173.51086, -36.45634, 10668.0],
          [173.59755, -36.43643, 10660.0],
          [173.68343, -36.41661, 10668.0],
          [173.77011, -36.39649, 10668.0],
          [173.85618, -36.37646, 10668.0],
          [173.94316, -36.35619, 10668.0],
          [174.03065, -36.33572, 10660.0],
          [174.11735, -36.31535, 10668.0],
          [174.20288, -36.29512, 10660.0],
          [174.29015, -36.27448, 10668.0],
          [174.37614, -36.25406, 10668.0],
          [174.46318, -36.23328, 10668.0],
          [174.54964, -36.21263, 10668.0],
          [174.6369, -36.19167, 10668.0],
          [174.72307, -36.17088, 10668.0],
          [174.81013, -36.14986, 10660.0],
          [174.89416, -36.12946, 10668.0],
          [174.98077, -36.10838, 10668.0],
          [175.06509, -36.08776, 10660.0],
          [175.15011, -36.06688, 10668.0],
          [175.23479, -36.04605, 10660.0],
          [175.32005, -36.02504, 10668.0],
          [175.40958, -36.0028, 10668.0],
          [175.49496, -35.98157, 10660.0],
          [175.57981, -35.96044, 10660.0],
          [175.67917, -35.93555, 10668.0],
          [175.76626, -35.91371, 10668.0],
          [175.85106, -35.89224, 10660.0],
          [175.96165, -35.86431, 10660.0],
          [176.05396, -35.84061, 10668.0],
          [176.13802, -35.81744, 10668.0],
          [176.22766, -35.79015, 10668.0],
          [176.311, -35.76448, 10660.0],
          [176.39528, -35.73862, 10668.0],
          [176.47911, -35.71298, 10668.0],
          [176.56157, -35.68783, 10660.0],
          [176.64648, -35.6619, 10660.0],
          [176.73054, -35.63622, 10668.0],
          [176.81677, -35.60967, 10668.0],
          [176.90332, -35.58299, 10660.0],
          [176.9878, -35.55679, 10668.0],
          [177.0702, -35.53125, 10668.0],
          [177.15536, -35.50469, 10660.0],
          [177.23852, -35.47867, 10668.0],
          [177.32325, -35.45204, 10668.0],
          [177.41775, -35.4223, 10668.0],
          [177.50135, -35.39589, 10668.0],
          [177.57997, -35.371, 10668.0],
          [177.67113, -35.34206, 10660.0],
          [177.76697, -35.31155, 10660.0],
          [177.85638, -35.28297, 10668.0],
          [177.93898, -35.2565, 10660.0],
          [178.02246, -35.22972, 10660.0],
          [178.11411, -35.20024, 10660.0],
          [178.20727, -35.17012, 10660.0],
          [178.33529, -35.12865, 10668.0],
          [178.43815, -35.09537, 10660.0],
          [178.53108, -35.06511, 10660.0],
          [178.64425, -35.02817, 10660.0],
          [178.72732, -35.00098, 10660.0],
          [178.80913, -34.97414, 10660.0],
          [178.89175, -34.94695, 10668.0],
          [178.97569, -34.91922, 10660.0],
          [179.05729, -34.89221, 10668.0],
          [179.21667, -34.83333, 10668.0],
          [179.32812, -34.80199, 10660.0],
          [179.49348, -34.7465, 10668.0],
          [179.57634, -34.71861, 10668.0],
          [179.65782, -34.69115, 10668.0],
          [179.77695, -34.65083, 10668.0],
          [180.0, -34.577423996018005, 10668.0]
        ]
      }
    },
    {
      "type": "Feature",
      "properties": { "name": "QFA21", "icon": null, "type": "flight", "order": 2.0 },
      "geometry": {
        "type": "LineString",
        "coordinates": [
          [-180.0, -34.577423996018005, 10668.0],
          [-179.91667, -34.55, 10668.0],
          [-147.77798, -19.58286, 11278.0],
          [-147.72364, -19.52696, 11270.0],
          [-147.63018, -19.43039, 11278.0],
          [-147.56372, -19.36177, 11278.0],
          [-147.51033, -19.3067, 11270.0],
          [-147.45864, -19.25322, 11278.0],
          [-147.36172, -19.15271, 11278.0],
          [-147.30052, -19.08911, 11270.0],
          [-147.24556, -19.03204, 11278.0],
          [-147.14043, -18.92267, 11278.0],
          [-147.08656, -18.8665, 11278.0],
          [-147.03432, -18.81199, 11278.0],
          [-146.98029, -18.75552, 11270.0],
          [-146.87712, -18.6478, 11278.0],
          [-146.82031, -18.58832, 11270.0],
          [-146.71517, -18.47817, 11270.0],
          [-146.66184, -18.42221, 11270.0],
          [-146.6086, -18.36625, 11270.0],
          [-146.50298, -18.25525, 11270.0],
          [-146.45207, -18.20151, 11278.0],
          [-146.39915, -18.1456, 11270.0],
          [-146.34716, -18.0908, 11270.0],
          [-146.24598, -17.98387, 11278.0],
          [-146.19121, -17.92593, 11270.0],
          [-146.13937, -17.871, 11278.0],
          [-146.03567, -17.76109, 11278.0],
          [-145.98358, -17.70584, 11278.0],
          [-145.93189, -17.65084, 11270.0],
          [-145.86028, -17.57463, 11278.0],
          [-145.8078, -17.51875, 11270.0],
          [-145.75674, -17.46435, 11278.0],
          [-145.70603, -17.41022, 11278.0],
          [-145.65414, -17.35478, 11278.0],
          [-145.60308, -17.30025, 11278.0],
          [-145.55124, -17.24486, 11278.0],
          [-145.50038, -17.19039, 11278.0],
          [-145.43749, -17.12302, 11270.0],
          [-145.38556, -17.06731, 11278.0],
          [-145.32358, -17.00084, 11270.0],
          [-145.27217, -16.94563, 11377.0],
          [-145.22096, -16.89055, 11552.0],
          [-145.17074, -16.83585, 11575.0],
          [-145.1213, -16.77952, 11575.0],
          [-145.07292, -16.72353, 11575.0],
          [-145.02458, -16.66766, 11575.0],
          [-144.97626, -16.61174, 11582.0],
          [-144.9273, -16.55525, 11575.0],
          [-144.87946, -16.50007, 11582.0],
          [-144.83075, -16.44402, 11582.0],
          [-144.77965, -16.3848, 11575.0],
          [-144.73153, -16.32916, 11582.0],
          [-144.68234, -16.27247, 11582.0],
          [-144.63403, -16.21666, 11575.0],
          [-144.58519, -16.15997, 11582.0],
          [-144.50447, -16.06627, 11582.0],
          [-144.45181, -16.00507, 11575.0],
          [-144.40322, -15.94866, 11582.0],
          [-144.33804, -15.8731, 11575.0],
          [-144.27467, -15.79904, 11575.0],
          [-144.19973, -15.71171, 11582.0],
          [-144.13663, -15.63812, 11575.0],
          [-144.08898, -15.58252, 11575.0],
          [-144.02874, -15.51224, 11582.0],
          [-143.98073, -15.45604, 11582.0],
          [-143.93355, -15.40069, 11582.0],
          [-143.88642, -15.34548, 11582.0],
          [-143.83937, -15.29031, 11582.0],
          [-143.79201, -15.23478, 11575.0],
          [-143.74464, -15.17921, 11582.0],
          [-143.69708, -15.12332, 11582.0],
          [-143.65007, -15.06794, 11582.0],
          [-143.59778, -15.00658, 11575.0],
          [-143.53231, -14.92935, 11582.0],
          [-143.44232, -14.82335, 11582.0],
          [-143.39625, -14.76907, 11582.0],
          [-143.33981, -14.70232, 11582.0],
          [-143.29293, -14.64693, 11582.0],
          [-143.15277, -14.48105, 11582.0],
          [-143.10658, -14.42642, 11575.0],
          [-143.06065, -14.37195, 11575.0],
          [-143.0133, -14.31573, 11575.0],
          [-142.96622, -14.25984, 11575.0],
          [-142.91989, -14.20481, 11575.0],
          [-142.8732, -14.14923, 11582.0],
          [-142.78258, -14.04103, 11582.0],
          [-142.72784, -13.97589, 11582.0],
          [-142.66031, -13.89542, 11582.0],
          [-142.59946, -13.82071, 11575.0],
          [-142.52104, -13.72275, 11575.0],
          [-142.43741, -13.6181, 11582.0],
          [-126.8, 3.5, 11887.0],
          [-126.50201, 3.73498, 11887.0],
          [-126.29038, 3.90173, 11887.0],
          [-126.26667, 3.93333, 11887.0],
          [-125.96665, 4.16829, 11887.0],
          [-125.76654, 4.32487, 11887.0],
          [-125.65348, 4.41328, 11887.0],
          [-125.61667, 4.43333, 11887.0],
          [-125.33294, 4.65597, 11887.0],
          [-125.2, 4.76667, 11887.0],
          [-125.21342, 4.74968, 11887.0],
          [-124.91, 4.99296, 11887.0],
          [-124.69373, 5.16154, 11887.0],
          [-124.58375, 5.24721, 11887.0],
          [-124.36549, 5.41709, 11887.0],
          [-124.15072, 5.58408, 11887.0],
          [-124.11667, 5.6, 11887.0],
          [-123.8245, 5.82971, 11887.0],
          [-123.62417, 5.98701, 11887.0],
          [-123.51042, 6.07626, 11887.0],
          [-123.40024, 6.16266, 11887.0],
          [-123.18159, 6.33396, 11887.0],
          [-123.06407, 6.42595, 11887.0],
          [-123.03333, 6.45, 11887.0],
          [-122.83947, 6.59391, 11887.0],
          [-122.60864, 6.76506, 11887.0],
          [-122.40288, 6.91743, 11887.0],
          [-122.27859, 7.00938, 11887.0],
          [-122.14453, 7.10848, 11887.0],
          [-121.9, 7.28333, 11887.0],
          [-121.57411, 7.52545, 11887.0],
          [-121.45332, 7.61506, 11887.0],
          [-121.33248, 7.70464, 11887.0],
          [-121.10274, 7.87474, 11887.0],
          [-120.96763, 7.97466, 11887.0],
          [-120.93333, 8.0, 11887.0],
          [-120.75, 8.15, 11887.0],
          [-120.41279, 8.42018, 11887.0],
          [-120.17521, 8.61013, 11887.0],
          [-120.04173, 8.7167, 11887.0],
          [-119.82083, 8.89475, 11887.0],
          [-119.70069, 8.9917, 11887.0],
          [-119.48798, 9.16312, 11887.0],
          [-119.37136, 9.25699, 11887.0],
          [-119.26024, 9.34634, 11887.0],
          [-119.14535, 9.43864, 11887.0],
          [-118.92468, 9.61569, 11887.0],
          [-118.81147, 9.70639, 11887.0],
          [-118.69819, 9.79705, 11887.0],
          [-118.4789, 9.97233, 11887.0],
          [-118.27426, 10.13559, 11887.0],
          [-118.16069, 10.22608, 11887.0],
          [-118.04333, 10.31948, 11887.0],
          [-117.92404, 10.41433, 11887.0],
          [-117.80653, 10.50765, 11887.0],
          [-117.59186, 10.67789, 11887.0],
          [-117.47042, 10.77405, 11887.0],
          [-117.24601, 10.95145, 11887.0],
          [-110.71932, 18.63616, 11887.0],
          [-110.65851, 18.71059, 11887.0],
          [-110.56032, 18.83034, 11880.0],
          [-110.50328, 18.89978, 11887.0],
          [-110.4384, 18.97929, 11887.0],
          [-110.38008, 19.04929, 11880.0],
          [-110.32647, 19.10825, 11880.0],
          [-110.27198, 19.16473, 11880.0],
          [-110.217, 19.2215, 11887.0],
          [-110.16291, 19.27742, 11887.0],
          [-110.06922, 19.37411, 11887.0],
          [-110.01326, 19.4317, 11887.0],
          [-109.93534, 19.51209, 11880.0],
          [-109.84729, 19.60236, 11887.0],
          [-109.78623, 19.66516, 11887.0],
          [-109.73027, 19.72252, 11887.0],
          [-109.67494, 19.77924, 11880.0],
          [-109.61987, 19.83549, 11880.0],
          [-109.55831, 19.89847, 11880.0],
          [-109.49114, 19.96705, 11880.0],
          [-109.43352, 20.02598, 11887.0],
          [-109.37923, 20.08124, 11887.0],
          [-109.31871, 20.14287, 11887.0],
          [-109.26242, 20.2001, 11887.0],
          [-109.19481, 20.26884, 11887.0],
          [-109.13674, 20.32806, 11887.0],
          [-109.06854, 20.39731, 11887.0],
          [-109.00998, 20.45673, 11887.0],
          [-108.95093, 20.5166, 11880.0],
          [-108.89084, 20.57753, 11887.0],
          [-108.82083, 20.64825, 11887.0],
          [-108.76352, 20.70621, 11880.0],
          [-108.70562, 20.76449, 11880.0],
          [-108.64904, 20.82151, 11887.0],
          [-108.59117, 20.88167, 11880.0],
          [-108.51927, 20.96526, 11887.0],
          [-108.46359, 21.03379, 11887.0],
          [-108.40535, 21.10547, 11880.0],
          [-108.34981, 21.17354, 11887.0],
          [-108.29708, 21.23817, 11880.0],
          [-108.24814, 21.29805, 11880.0],
          [-108.19326, 21.36493, 11887.0],
          [-108.14143, 21.42837, 11887.0],
          [-108.08829, 21.49333, 11887.0],
          [-108.03599, 21.5569, 11880.0],
          [-107.98557, 21.61848, 11887.0],
          [-107.93218, 21.68352, 11887.0],
          [-107.8763, 21.75137, 11887.0],
          [-107.82347, 21.81546, 11887.0],
          [-107.77405, 21.87532, 11887.0],
          [-107.72165, 21.93874, 11880.0],
          [-107.67039, 22.00077, 11887.0],
          [-107.61688, 22.06522, 11880.0],
          [-107.5565, 22.13828, 11880.0],
          [-107.50202, 22.20392, 11880.0],
          [-107.45058, 22.26595, 11887.0],
          [-107.3984, 22.32843, 11880.0],
          [-107.34614, 22.39125, 11887.0],
          [-107.29319, 22.45475, 11887.0],
          [-107.24111, 22.51708, 11880.0],
          [-107.18791, 22.5807, 11887.0],
          [-107.13453, 22.64442, 11887.0],
          [-107.0812, 22.70809, 11880.0],
          [-107.02759, 22.772, 11887.0],
          [-106.975, 22.83462, 11880.0],
          [-106.91676, 22.90403, 11887.0],
          [-106.84479, 22.98936, 11887.0],
          [-106.78996, 23.05448, 11887.0],
          [-106.73716, 23.11691, 11880.0],
          [-106.68364, 23.17982, 11887.0],
          [-106.6301, 23.24313, 11887.0],
          [-106.56596, 23.31899, 11887.0],
          [-106.51199, 23.3824, 11887.0],
          [-106.45767, 23.44617, 11887.0],
          [-106.38471, 23.53212, 11880.0],
          [-106.32978, 23.59663, 11887.0],
          [-106.27542, 23.66036, 11887.0],
          [-106.2224, 23.72269, 11887.0],
          [-106.1669, 23.78754, 11880.0],
          [-106.10891, 23.85526, 11887.0],
          [-106.05545, 23.91756, 11887.0],
          [-105.99828, 23.98407, 11887.0],
          [-105.94345, 24.04793, 11880.0],
          [-105.88758, 24.11271, 11880.0],
          [-105.82767, 24.18221, 11887.0],
          [-105.77525, 24.24298, 11887.0],
          [-105.71869, 24.30817, 11895.0],
          [-105.66508, 24.37056, 11887.0],
          [-105.60712, 24.43653, 11880.0],
          [-105.55354, 24.49887, 11887.0],
          [-105.49756, 24.56333, 11880.0],
          [-105.44077, 24.62786, 11887.0],
          [-105.3712, 24.70789, 11872.0],
          [-105.31603, 24.77138, 11887.0],
          [-105.25319, 24.84338, 11880.0],
          [-105.1976, 24.90651, 11872.0],
          [-105.14308, 24.96909, 11872.0],
          [-105.08371, 25.03682, 11887.0],
          [-105.02436, 25.10454, 11986.0],
          [-104.97183, 25.16414, 12062.0],
          [-104.91608, 25.22717, 12207.0],
          [-104.85258, 25.2942, 12382.0],
          [-104.79376, 25.35165, 12504.0],
          [-104.72285, 25.41998, 12482.0],
          [-104.66312, 25.47734, 12489.0],
          [-104.60327, 25.53488, 12489.0],
          [-104.54447, 25.59142, 12497.0],
          [-104.47586, 25.65715, 12497.0],
          [-104.4134, 25.71698, 12497.0],
          [-104.35343, 25.77421, 12489.0],
          [-104.29404, 25.83087, 12497.0],
          [-104.23414, 25.88786, 12497.0],
          [-104.17548, 25.94356, 12497.0],
          [-104.11515, 26.00098, 12489.0],
          [-104.05759, 26.05552, 12489.0],
          [-103.99648, 26.11349, 12497.0],
          [-103.91102, 26.19415, 12497.0],
          [-103.84362, 26.25793, 12497.0],
          [-103.77841, 26.31944, 12497.0],
          [-103.71928, 26.37505, 12497.0],
          [-103.6616, 26.42938, 12497.0],
          [-103.60247, 26.48474, 12489.0],
          [-103.54429, 26.53929, 12497.0],
          [-103.48493, 26.59478, 12497.0],
          [-103.42566, 26.65023, 12489.0],
          [-103.36653, 26.70538, 12497.0],
          [-103.29763, 26.76954, 12489.0],
          [-103.23921, 26.82386, 12497.0],
          [-103.14385, 26.91248, 12497.0],
          [-103.07803, 26.97354, 12497.0],
          [-103.02012, 27.02711, 12489.0],
          [-102.95806, 27.08446, 12497.0],
          [-102.89626, 27.14149, 12489.0],
          [-102.83017, 27.20233, 12497.0],
          [-102.76669, 27.26071, 12497.0],
          [-102.70678, 27.31577, 12489.0],
          [-102.64402, 27.37326, 12497.0],
          [-102.58287, 27.42929, 12497.0],
          [-102.52162, 27.48528, 12497.0],
          [-102.46083, 27.54085, 12497.0],
          [-102.38878, 27.60655, 12489.0],
          [-102.31847, 27.67046, 12489.0],
          [-102.25921, 27.72432, 12497.0],
          [-102.19123, 27.78601, 12497.0],
          [-102.12953, 27.84187, 12497.0],
          [-102.06785, 27.89764, 12497.0],
          [-101.99733, 27.96126, 12497.0],
          [-101.92792, 28.02389, 12497.0],
          [-101.86545, 28.08008, 12497.0],
          [-101.80671, 28.13283, 12489.0],
          [-101.74745, 28.18598, 12497.0],
          [-101.66737, 28.25767, 12497.0],
          [-101.60474, 28.31368, 12497.0],
          [-101.5406, 28.37089, 12489.0],
          [-101.47749, 28.42726, 12497.0],
          [-101.4184, 28.47973, 12497.0],
          [-101.35378, 28.53713, 12489.0],
          [-101.29125, 28.59251, 12497.0],
          [-101.22803, 28.64841, 12482.0],
          [-101.16189, 28.7069, 12489.0],
          [-101.1019, 28.75987, 12489.0],
          [-101.03767, 28.81696, 12489.0],
          [-100.97604, 28.8744, 12489.0],
          [-100.91692, 28.92975, 12497.0],
          [-100.85234, 28.99003, 12489.0],
          [-100.79211, 29.04602, 12489.0],
          [-100.72804, 29.10534, 12497.0],
          [-100.66783, 29.16083, 12489.0],
          [-100.60682, 29.21686, 12497.0],
          [-100.5436, 29.27486, 12489.0],
          [-100.4818, 29.33148, 12497.0],
          [-100.41542, 29.39215, 12497.0],
          [-100.35335, 29.44881, 12489.0],
          [-100.29424, 29.50264, 12489.0],
          [-100.23183, 29.55941, 12489.0],
          [-100.16542, 29.61974, 12489.0],
          [-100.10117, 29.67812, 12497.0],
          [-100.03886, 29.73459, 12497.0],
          [-99.97791, 29.78979, 12497.0],
          [-99.91273, 29.84875, 12489.0],
          [-99.84774, 29.90744, 12497.0],
          [-99.78585, 29.96316, 12497.0],
          [-99.72069, 30.02174, 12497.0],
          [-99.65753, 30.07843, 12497.0],
          [-99.59446, 30.1349, 12413.0],
          [-99.53058, 30.19211, 12200.0],
          [-99.46747, 30.24829, 11963.0],
          [-99.40112, 30.30743, 11590.0],
          [-99.33407, 30.36731, 11156.0],
          [-99.26503, 30.4287, 10980.0],
          [-99.19227, 30.49319, 10927.0],
          [-99.1203, 30.55666, 10798.0],
          [-99.0496, 30.6189, 10584.0],
          [-98.97819, 30.68188, 10295.0],
          [-98.90609, 30.74529, 10051.0],
          [-98.83209, 30.8101, 10058.0],
          [-98.76094, 30.87247, 10058.0],
          [-98.68631, 30.93768, 10051.0],
          [-98.61285, 31.00191, 10051.0],
          [-98.53901, 31.06626, 10058.0],
          [-98.46658, 31.12921, 10051.0],
          [-98.39114, 31.1947, 10051.0],
          [-98.31956, 31.2589, 10043.0],
          [-98.27551, 31.3119, 9914.0],
          [-98.25216, 31.35135, 9830.0],
          [-98.23468, 31.3938, 9685.0],
          [-98.22244, 31.46266, 9464.0],
          [-98.22426, 31.49794, 9342.0],
          [-98.2342, 31.53793, 9174.0],
          [-98.24991, 31.57252, 9014.0],
          [-98.27292, 31.616, 8717.0],
          [-98.29209, 31.64886, 8534.0],
          [-98.33496, 31.71419, 8092.0],
          [-98.35166, 31.7384, 7963.0],
          [-98.36812, 31.76715, 7818.0],
          [-98.37803, 31.79937, 7704.0],
          [-98.38043, 31.83531, 7559.0],
          [-98.37598, 31.86992, 7399.0],
          [-98.36312, 31.93525, 7140.0],
          [-98.35073, 31.99684, 6911.0],
          [-98.33969, 32.05908, 6767.0],
          [-98.33111, 32.11718, 6629.0],
          [-98.32422, 32.17463, 6462.0],
          [-98.31945, 32.2297, 6256.0],
          [-98.3178, 32.28442, 6096.0],
          [-98.31609, 32.3147, 5974.0],
          [-98.30462, 32.34641, 5852.0],
          [-98.28111, 32.37245, 5700.0],
          [-98.24877, 32.38853, 5494.0],
          [-98.21129, 32.39342, 5265.0],
          [-98.14384, 32.3925, 4778.0],
          [-98.08237, 32.39122, 4351.0],
          [-98.0237, 32.38985, 3970.0],
          [-97.96301, 32.38914, 3673.0],
          [-97.90489, 32.38825, 3475.0],
          [-97.85018, 32.38718, 3284.0],
          [-97.79458, 32.38607, 3139.0],
          [-97.7425, 32.38499, 3071.0],
          [-97.69318, 32.38392, 2979.0],
          [-97.64819, 32.38307, 2896.0],
          [-97.62616, 32.38646, 2812.0],
          [-97.60913, 32.39648, 2736.0],
          [-97.58458, 32.41809, 2606.0],
          [-97.55711, 32.44212, 2469.0],
          [-97.52975, 32.46602, 2332.0],
          [-97.51061, 32.47614, 2240.0],
          [-97.48606, 32.48005, 2164.0],
          [-97.4628, 32.48229, 2088.0],
          [-97.42166, 32.48615, 1951.0],
          [-97.37967, 32.48988, 1806.0],
          [-97.36017, 32.49137, 1745.0],
          [-97.32365, 32.49028, 1623.0],
          [-97.288, 32.48822, 1600.0],
          [-97.25468, 32.48601, 1593.0],
          [-97.21964, 32.48364, 1577.0],
          [-97.18556, 32.48127, 1524.0],
          [-97.14996, 32.47874, 1471.0],
          [-97.11847, 32.47633, 1440.0],
          [-97.10134, 32.4771, 1433.0],
          [-97.09117, 32.48471, 1417.0],
          [-97.08046, 32.50031, 1372.0],
          [-97.07239, 32.51276, 1326.0],
          [-97.06025, 32.53052, 1250.0],
          [-97.05647, 32.54239, 1196.0],
          [-97.05603, 32.55282, 1181.0],
          [-97.05614, 32.56408, 1181.0],
          [-97.05613, 32.57629, 1181.0],
          [-97.05613, 32.58701, 1181.0],
          [-97.05619, 32.59909, 1181.0],
          [-97.05613, 32.6109, 1181.0],
          [-97.05613, 32.62152, 1181.0],
          [-97.05608, 32.63196, 1181.0],
          [-97.05591, 32.64308, 1181.0],
          [-97.05591, 32.65402, 1181.0],
          [-97.05586, 32.66505, 1181.0],
          [-97.0558, 32.67674, 1181.0],
          [-97.05569, 32.68693, 1173.0],
          [-97.05569, 32.69825, 1181.0],
          [-97.05563, 32.70844, 1181.0],
          [-97.05558, 32.71999, 1151.0],
          [-97.05553, 32.73116, 1082.0],
          [-97.05546, 32.74163, 998.0],
          [-97.05542, 32.75267, 930.0],
          [-97.05536, 32.76407, 853.0],
          [-97.0553, 32.77706, 785.0],
          [-97.05524, 32.79368, 678.0],
          [-97.05513, 32.80964, 572.0],
          [-97.05513, 32.82086, 495.0],
          [-97.05509, 32.82674, 472.0],
          [-97.05507, 32.83069, 442.0],
          [-97.05496, 32.84088, 373.0],
          [-97.0549, 32.85094, 312.0],
          [-97.0549, 32.86081, 251.0],
          [-97.05487, 32.87169, 183.0],
          [-97.05482, 32.8813, 122.0]
        ]
      }
    },
    {
      "type": "Feature",
      "properties": { "name": "KDTW Airport", "icon": "target", "type": null, "order": null },
      "geometry": { "type": "Point", "coordinates": [-83.3533933, 42.2124311, 0.0] }
    },
    {
      "type": "Feature",
      "properties": { "name": "AAL2508", "icon": null, "type": "flight", "order": 3.0 },
      "geometry": {
        "type": "LineString",
        "coordinates": [
          [-97.02933, 32.91719, 411.0],
          [-97.02878, 32.92923, 579.0],
          [-97.02872, 32.94255, 671.0],
          [-97.02883, 32.95857, 785.0],
          [-97.02779, 32.98439, 1013.0],
          [-97.02636, 33.00197, 1166.0],
          [-97.01567, 33.02029, 1372.0],
          [-96.99802, 33.03127, 1516.0],
          [-96.97094, 33.03365, 1722.0],
          [-96.92206, 33.03026, 2164.0],
          [-96.87662, 33.02824, 2522.0],
          [-96.82635, 33.02559, 2850.0],
          [-96.77587, 33.02303, 2995.0],
          [-96.71551, 33.01964, 3033.0],
          [-96.65822, 33.01648, 3482.0],
          [-96.59822, 33.01323, 3848.0],
          [-96.53302, 33.00957, 4183.0],
          [-96.46886, 33.00577, 4511.0],
          [-96.40492, 33.00214, 4892.0],
          [-96.34697, 33.00156, 5212.0],
          [-96.30906, 33.00801, 5456.0],
          [-96.21689, 33.03932, 6157.0],
          [-96.15649, 33.06056, 6469.0],
          [-96.09629, 33.08193, 6721.0],
          [-96.02836, 33.10604, 6934.0],
          [-95.963, 33.12904, 7117.0],
          [-95.89024, 33.15455, 7285.0],
          [-95.82012, 33.17913, 7414.0],
          [-95.74662, 33.2048, 7597.0],
          [-95.66895, 33.23177, 7856.0],
          [-95.594, 33.25766, 8054.0],
          [-95.51278, 33.28578, 8214.0],
          [-95.42938, 33.3145, 8359.0],
          [-95.34738, 33.34277, 8466.0],
          [-95.26004, 33.37293, 8611.0],
          [-95.1772, 33.40132, 8763.0],
          [-95.08577, 33.43256, 8946.0],
          [-94.99669, 33.46289, 9091.0],
          [-94.90435, 33.4942, 9235.0],
          [-94.8169, 33.52373, 9357.0],
          [-94.72457, 33.55499, 9495.0],
          [-94.63068, 33.58672, 9677.0],
          [-94.53747, 33.61803, 9815.0],
          [-94.44403, 33.64925, 9944.0],
          [-94.35482, 33.67878, 10089.0],
          [-93.92012, 33.87145, 10668.0],
          [-93.83623, 33.91205, 10668.0],
          [-93.74712, 33.95462, 10668.0],
          [-93.65793, 33.99654, 10668.0],
          [-93.57241, 34.03647, 10668.0],
          [-93.4833, 34.07796, 10668.0],
          [-93.39433, 34.1196, 10668.0],
          [-93.30784, 34.15988, 10668.0],
          [-93.21928, 34.20114, 10668.0],
          [-93.13116, 34.24219, 10668.0],
          [-93.04316, 34.28302, 10668.0],
          [-92.95684, 34.32298, 10668.0],
          [-92.86703, 34.36426, 10668.0],
          [-92.7796, 34.40451, 10668.0],
          [-92.65406, 34.46216, 10668.0],
          [-92.55881, 34.50581, 10668.0],
          [-92.46979, 34.54628, 10668.0],
          [-92.3819, 34.5862, 10668.0],
          [-92.30287, 34.62337, 10668.0],
          [-92.2295, 34.67001, 10668.0],
          [-92.16263, 34.72815, 10668.0],
          [-92.09816, 34.79081, 10668.0],
          [-92.0319, 34.85492, 10668.0],
          [-91.96846, 34.91615, 10668.0],
          [-91.90493, 34.9774, 10668.0],
          [-91.84559, 35.03448, 10668.0],
          [-91.7799, 35.09775, 10668.0],
          [-91.71802, 35.15698, 10668.0],
          [-91.65894, 35.21365, 10668.0],
          [-91.59416, 35.27573, 10668.0],
          [-91.53202, 35.33496, 10668.0],
          [-91.46901, 35.39474, 10668.0],
          [-91.40701, 35.45358, 10668.0],
          [-91.34434, 35.51303, 10668.0],
          [-91.28336, 35.57052, 10668.0],
          [-91.21782, 35.63246, 10668.0],
          [-91.15409, 35.69267, 10668.0],
          [-91.08295, 35.75963, 10668.0],
          [-91.01995, 35.81863, 10668.0],
          [-90.95936, 35.87503, 10660.0],
          [-90.89626, 35.93353, 10561.0],
          [-90.83405, 35.99167, 10401.0],
          [-90.77518, 36.0474, 10241.0],
          [-90.71516, 36.10363, 10096.0],
          [-90.65237, 36.16177, 9952.0],
          [-90.59601, 36.21346, 9822.0],
          [-90.53459, 36.26927, 9662.0],
          [-90.47241, 36.32657, 9525.0],
          [-90.41096, 36.38338, 9449.0],
          [-90.3507, 36.43877, 9449.0],
          [-90.28792, 36.49626, 9449.0],
          [-90.22636, 36.55234, 9449.0],
          [-90.16708, 36.60617, 9449.0],
          [-90.10525, 36.66231, 9449.0],
          [-90.04457, 36.71773, 9449.0],
          [-89.98335, 36.77362, 9449.0],
          [-89.92216, 36.82906, 9449.0],
          [-89.86422, 36.8812, 9449.0],
          [-89.79998, 36.93915, 9449.0],
          [-89.7414, 36.99167, 9449.0],
          [-89.6783, 37.04846, 9449.0],
          [-89.615, 37.1053, 9449.0],
          [-89.55494, 37.15897, 9449.0],
          [-89.49475, 37.21266, 9449.0],
          [-89.43268, 37.26778, 9449.0],
          [-89.36449, 37.3277, 9449.0],
          [-89.3032, 37.38177, 9449.0],
          [-89.24282, 37.43513, 9449.0],
          [-89.18374, 37.48746, 9449.0],
          [-89.12342, 37.54084, 9449.0],
          [-89.0619, 37.59494, 9449.0],
          [-89.00048, 37.6488, 9449.0],
          [-88.94048, 37.7014, 9449.0],
          [-88.88278, 37.75191, 9449.0],
          [-88.8195, 37.80693, 9449.0],
          [-88.7527, 37.86507, 9449.0],
          [-88.69143, 37.91829, 9449.0],
          [-88.63168, 37.97008, 9449.0],
          [-88.57102, 38.02258, 9449.0],
          [-88.51058, 38.0748, 9449.0],
          [-88.44955, 38.12731, 9449.0],
          [-88.38991, 38.17847, 9449.0],
          [-88.33014, 38.22963, 9449.0],
          [-88.26702, 38.2836, 9449.0],
          [-88.20531, 38.33615, 9449.0],
          [-88.14413, 38.3882, 9449.0],
          [-88.08514, 38.43828, 9449.0],
          [-88.02318, 38.49101, 9449.0],
          [-87.96311, 38.5421, 9449.0],
          [-87.90045, 38.59525, 9449.0],
          [-87.8388, 38.64716, 9449.0],
          [-87.78094, 38.6958, 9449.0],
          [-87.71759, 38.74892, 9449.0],
          [-87.65472, 38.80152, 9449.0],
          [-87.59471, 38.85159, 9449.0],
          [-87.5322, 38.90382, 9449.0],
          [-87.4732, 38.95404, 9449.0],
          [-87.41626, 39.00547, 9449.0],
          [-87.35844, 39.05791, 9449.0],
          [-87.29945, 39.11115, 9449.0],
          [-87.23889, 39.16528, 9449.0],
          [-87.17944, 39.21799, 9449.0],
          [-87.12152, 39.26903, 9449.0],
          [-87.06098, 39.32222, 9449.0],
          [-87.00288, 39.37308, 9449.0],
          [-86.94366, 39.425, 9449.0],
          [-86.88464, 39.4769, 9449.0],
          [-86.82416, 39.52969, 9449.0],
          [-86.76506, 39.58145, 9449.0],
          [-86.70581, 39.63332, 9449.0],
          [-86.64511, 39.68633, 9449.0],
          [-86.58564, 39.73837, 9449.0],
          [-86.52795, 39.78824, 9449.0],
          [-86.46576, 39.84211, 9449.0],
          [-86.40918, 39.89117, 9449.0],
          [-86.34873, 39.94336, 9449.0],
          [-86.28781, 39.99573, 9449.0],
          [-86.22944, 40.04572, 9449.0],
          [-86.16945, 40.09693, 9449.0],
          [-86.11053, 40.14726, 9449.0],
          [-86.04791, 40.20062, 9449.0],
          [-85.98883, 40.25089, 9449.0],
          [-85.92751, 40.30288, 9449.0],
          [-85.86707, 40.35402, 9449.0],
          [-85.80672, 40.40506, 9449.0],
          [-85.74673, 40.45562, 9449.0],
          [-85.68462, 40.50803, 9449.0],
          [-85.62351, 40.55961, 9426.0],
          [-85.56464, 40.60895, 9091.0],
          [-85.50555, 40.65839, 8740.0],
          [-85.44748, 40.70709, 8412.0],
          [-85.39105, 40.75516, 8092.0],
          [-85.33484, 40.8035, 7780.0],
          [-85.28256, 40.84819, 7475.0],
          [-85.24136, 40.88013, 7292.0],
          [-85.17255, 40.92513, 7170.0],
          [-85.11339, 40.96383, 7071.0],
          [-85.04724, 41.00679, 7010.0],
          [-84.9863, 41.04636, 7010.0],
          [-84.92294, 41.08733, 7010.0],
          [-84.85852, 41.12883, 7010.0],
          [-84.80946, 41.16051, 7010.0],
          [-84.73412, 41.2153, 7010.0],
          [-84.6759, 41.25783, 7010.0],
          [-84.61981, 41.2988, 7010.0],
          [-84.56268, 41.34055, 7003.0],
          [-84.50732, 41.38101, 6751.0],
          [-84.45165, 41.42172, 6553.0],
          [-84.41492, 41.45481, 6401.0],
          [-84.35296, 41.52697, 6111.0],
          [-84.31395, 41.57359, 5913.0],
          [-84.27656, 41.61813, 5730.0],
          [-84.23901, 41.66281, 5540.0],
          [-84.20147, 41.70717, 5364.0],
          [-84.16837, 41.74037, 5227.0],
          [-84.09697, 41.79135, 4968.0],
          [-84.04656, 41.82653, 4793.0],
          [-83.9961, 41.86182, 4602.0],
          [-83.94784, 41.89503, 4420.0],
          [-83.89791, 41.92928, 4229.0],
          [-83.85384, 41.95995, 4054.0],
          [-83.80933, 41.99098, 3886.0],
          [-83.77395, 42.02187, 3757.0],
          [-83.73523, 42.06175, 3559.0],
          [-83.70285, 42.09565, 3322.0],
          [-83.67031, 42.13051, 3078.0],
          [-83.6407, 42.1632, 2918.0],
          [-83.61215, 42.19513, 2865.0],
          [-83.58539, 42.22502, 2804.0],
          [-83.56022, 42.25319, 2705.0],
          [-83.53467, 42.28135, 2583.0],
          [-83.51033, 42.30835, 2431.0],
          [-83.489, 42.33242, 2179.0],
          [-83.46694, 42.35783, 1951.0],
          [-83.44522, 42.38306, 1745.0],
          [-83.42321, 42.4069, 1516.0],
          [-83.39928, 42.4325, 1295.0],
          [-83.37627, 42.45704, 1288.0],
          [-83.36114, 42.47131, 1288.0],
          [-83.34253, 42.47736, 1288.0],
          [-83.31576, 42.47374, 1288.0],
          [-83.27879, 42.46518, 1288.0],
          [-83.23935, 42.45598, 1288.0],
          [-83.22246, 42.44884, 1273.0],
          [-83.21438, 42.43323, 1166.0],
          [-83.21332, 42.4167, 1067.0],
          [-83.21179, 42.39759, 983.0],
          [-83.21457, 42.38411, 983.0],
          [-83.22303, 42.3698, 983.0],
          [-83.23767, 42.34996, 983.0],
          [-83.25246, 42.33028, 983.0],
          [-83.2665, 42.31123, 922.0],
          [-83.27755, 42.2964, 823.0],
          [-83.29016, 42.27916, 709.0],
          [-83.29642, 42.27092, 648.0],
          [-83.30185, 42.26338, 594.0],
          [-83.30792, 42.25519, 533.0],
          [-83.31418, 42.24681, 472.0],
          [-83.32025, 42.2384, 411.0],
          [-83.32743, 42.22865, 335.0],
          [-83.33373, 42.22018, 274.0],
          [-83.3396, 42.21222, 244.0]
        ]
      }
    }
  ]
}
