{
  "type": "FeatureCollection",
  "name": "geometry",
  "features": [
    {
      "type": "Feature",
      "properties": { "name": "KDTW Airport", "icon": "target", "type": null, "order": null },
      "geometry": { "type": "Point", "coordinates": [-83.3533933, 42.2124311, 0.0] }
    },
    {
      "type": "Feature",
      "properties": { "name": "KORD Airport", "icon": "target", "type": null, "order": null },
      "geometry": { "type": "Point", "coordinates": [-87.9081497, 41.9769403, 0.0] }
    },
    {
      "type": "Feature",
      "properties": { "name": "RPA4350", "icon": null, "type": "flight", "order": 1.0 },
      "geometry": {
        "type": "LineString",
        "coordinates": [
          [-83.36304, 42.21362, 221.0],
          [-83.37096, 42.20328, 465.0],
          [-83.37805, 42.19414, 587.0],
          [-83.38973, 42.18347, 671.0],
          [-83.40673, 42.17419, 792.0],
          [-83.42302, 42.16492, 998.0],
          [-83.44241, 42.15468, 1250.0],
          [-83.4662, 42.15017, 1379.0],
          [-83.49392, 42.15473, 1585.0],
          [-83.52855, 42.16617, 1928.0],
          [-83.57362, 42.18127, 2324.0],
          [-83.61875, 42.19647, 2835.0],
          [-83.66555, 42.21185, 3193.0],
          [-83.71819, 42.22966, 3338.0],
          [-83.77625, 42.24895, 3650.0],
          [-83.83495, 42.26845, 4023.0],
          [-83.89588, 42.28866, 4343.0],
          [-83.95727, 42.30894, 4656.0],
          [-84.02216, 42.33032, 4968.0],
          [-84.08284, 42.35029, 5235.0],
          [-84.14997, 42.37234, 5555.0],
          [-84.21595, 42.39396, 5799.0],
          [-84.28199, 42.41556, 6081.0],
          [-84.33012, 42.42764, 6279.0],
          [-84.37225, 42.43218, 6447.0],
          [-84.44501, 42.43432, 6713.0],
          [-84.52076, 42.43629, 6980.0],
          [-84.5966, 42.43822, 7239.0],
          [-84.67023, 42.44005, 7315.0],
          [-84.75288, 42.44205, 7315.0],
          [-84.82978, 42.44382, 7315.0],
          [-84.90659, 42.44554, 7315.0],
          [-84.97912, 42.4471, 7315.0],
          [-85.04906, 42.44861, 7315.0],
          [-85.11964, 42.45007, 7254.0],
          [-85.1858, 42.45145, 7109.0],
          [-85.25678, 42.45282, 6949.0],
          [-85.32442, 42.4541, 6797.0],
          [-85.40771, 42.45564, 6599.0],
          [-85.47306, 42.4568, 6454.0],
          [-85.54351, 42.45802, 6302.0],
          [-85.61032, 42.45913, 6149.0],
          [-85.67528, 42.46016, 6096.0],
          [-85.74498, 42.46124, 6096.0],
          [-85.80884, 42.4622, 6096.0],
          [-85.87182, 42.46307, 6096.0],
          [-85.94406, 42.46407, 6096.0],
          [-86.01765, 42.46504, 6096.0],
          [-86.08325, 42.46588, 6096.0],
          [-86.14886, 42.46655, 6096.0],
          [-86.22204, 42.46593, 6073.0],
          [-86.29563, 42.46537, 5913.0],
          [-86.36864, 42.46472, 5654.0],
          [-86.44049, 42.46404, 5364.0],
          [-86.51477, 42.46339, 5098.0],
          [-86.58204, 42.46267, 4854.0],
          [-86.65147, 42.46193, 4610.0],
          [-86.71515, 42.4612, 4389.0],
          [-86.78075, 42.46039, 4153.0],
          [-86.84316, 42.4596, 3932.0],
          [-86.90847, 42.45877, 3696.0],
          [-86.97442, 42.45788, 3452.0],
          [-87.03861, 42.45699, 3238.0],
          [-87.08856, 42.45606, 3193.0],
          [-87.12907, 42.45016, 3124.0],
          [-87.15512, 42.4433, 2972.0],
          [-87.18276, 42.43501, 2789.0],
          [-87.20347, 42.41728, 2591.0],
          [-87.22258, 42.3821, 2355.0],
          [-87.24109, 42.34755, 2111.0],
          [-87.26053, 42.31151, 2065.0],
          [-87.2797, 42.27553, 1852.0],
          [-87.29718, 42.24303, 1669.0],
          [-87.31729, 42.20705, 1501.0],
          [-87.33694, 42.17285, 1494.0],
          [-87.35664, 42.13857, 1364.0],
          [-87.3765, 42.10468, 1219.0],
          [-87.3963, 42.07059, 1196.0],
          [-87.40793, 42.05348, 1196.0],
          [-87.4312, 42.03854, 1189.0],
          [-87.46676, 42.01926, 1189.0],
          [-87.4865, 42.00966, 1196.0],
          [-87.50828, 42.00525, 1196.0],
          [-87.53469, 42.00316, 1196.0],
          [-87.55535, 42.00215, 1196.0],
          [-87.58729, 42.00218, 1189.0],
          [-87.62491, 42.00232, 1189.0],
          [-87.66464, 42.0025, 1166.0],
          [-87.70404, 42.00266, 1013.0],
          [-87.73913, 42.00275, 861.0],
          [-87.77071, 42.00275, 732.0],
          [-87.80203, 42.00273, 594.0],
          [-87.81747, 42.00275, 526.0],
          [-87.83214, 42.0027, 465.0],
          [-87.8447, 42.00269, 411.0],
          [-87.8586, 42.00284, 351.0],
          [-87.87252, 42.00284, 297.0],
          [-87.88539, 42.00283, 244.0],
          [-87.89999, 42.00284, 183.0]
        ]
      }
    },
    {
      "type": "Feature",
      "properties": { "name": "KMEM Airport", "icon": "target", "type": null, "order": null },
      "geometry": { "type": "Point", "coordinates": [-89.9766792, 35.0424114, 0.0] }
    },
    {
      "type": "Feature",
      "properties": { "name": "RPA4583", "icon": null, "type": "flight", "order": 2.0 },
      "geometry": {
        "type": "LineString",
        "coordinates": [
          [-87.89187, 41.95972, 168.0],
          [-87.90186, 41.95139, 328.0],
          [-87.90915, 41.94077, 518.0],
          [-87.91335, 41.92859, 625.0],
          [-87.91878, 41.91426, 747.0],
          [-87.9278, 41.89064, 1044.0],
          [-87.93844, 41.86093, 1410.0],
          [-87.95105, 41.82807, 1707.0],
          [-87.96472, 41.79131, 2118.0],
          [-87.97277, 41.76918, 2355.0],
          [-87.98626, 41.7431, 2659.0],
          [-88.02157, 41.68176, 3223.0],
          [-88.03757, 41.65388, 3429.0],
          [-88.06021, 41.61426, 3810.0],
          [-88.0842, 41.5724, 4138.0],
          [-88.1081, 41.53061, 4481.0],
          [-88.13257, 41.48767, 4816.0],
          [-88.15686, 41.44514, 5044.0],
          [-88.18158, 41.40074, 5357.0],
          [-88.19653, 41.36966, 5563.0],
          [-88.21674, 41.3242, 5852.0],
          [-88.23834, 41.27577, 6066.0],
          [-88.25549, 41.23741, 6279.0],
          [-88.27677, 41.1904, 6553.0],
          [-88.29968, 41.13972, 6828.0],
          [-88.32115, 41.09236, 7048.0],
          [-88.34381, 41.04195, 7262.0],
          [-88.36672, 40.99101, 7536.0],
          [-88.39929, 40.91844, 7856.0],
          [-88.4278, 40.85481, 8146.0],
          [-88.45844, 40.78629, 8382.0],
          [-88.47459, 40.75011, 8481.0],
          [-88.49038, 40.71473, 8611.0],
          [-88.51306, 40.6637, 8740.0],
          [-88.53656, 40.61096, 8954.0],
          [-88.55817, 40.56226, 9129.0],
          [-88.57593, 40.52216, 9213.0],
          [-88.59021, 40.48988, 9266.0],
          [-88.61291, 40.43853, 9388.0],
          [-88.63605, 40.38606, 9487.0],
          [-88.6558, 40.34175, 9594.0],
          [-88.68108, 40.30777, 9723.0],
          [-88.71866, 40.27607, 9868.0],
          [-88.76495, 40.23999, 10013.0],
          [-88.81529, 40.2007, 10104.0],
          [-88.86335, 40.16313, 10226.0],
          [-88.91095, 40.12587, 10333.0],
          [-88.96666, 40.08218, 10363.0],
          [-89.01922, 40.04079, 10363.0],
          [-89.07022, 40.00066, 10363.0],
          [-89.12222, 39.95965, 10363.0],
          [-89.1734, 39.91924, 10363.0],
          [-89.22467, 39.87865, 10363.0],
          [-89.27985, 39.83489, 10363.0],
          [-89.32928, 39.79565, 10363.0],
          [-89.38269, 39.75305, 10363.0],
          [-89.43456, 39.71173, 10363.0],
          [-89.48651, 39.67023, 10363.0],
          [-89.5384, 39.62878, 10363.0],
          [-89.5901, 39.58736, 10363.0],
          [-89.64197, 39.54566, 10363.0],
          [-89.69366, 39.50404, 10363.0],
          [-89.74737, 39.46078, 10363.0],
          [-89.79633, 39.42127, 10363.0],
          [-89.85181, 39.37644, 10363.0],
          [-89.90321, 39.33476, 10363.0],
          [-89.95691, 39.29125, 10363.0],
          [-90.02466, 39.23613, 10363.0],
          [-90.07416, 39.19583, 10363.0],
          [-90.1286, 39.15141, 10363.0],
          [-90.18005, 39.10933, 10363.0],
          [-90.23346, 39.06561, 10363.0],
          [-90.28479, 39.02344, 10363.0],
          [-90.33258, 38.98419, 10363.0],
          [-90.38297, 38.94269, 10356.0],
          [-90.4353, 38.89952, 10363.0],
          [-90.46838, 38.8687, 10363.0],
          [-90.49253, 38.82724, 10363.0],
          [-90.51111, 38.7695, 10363.0],
          [-90.52866, 38.71326, 10363.0],
          [-90.54609, 38.65718, 10249.0],
          [-90.56448, 38.59804, 10081.0],
          [-90.57843, 38.55345, 9959.0],
          [-90.60339, 38.47305, 9761.0],
          [-90.62189, 38.4137, 9754.0],
          [-90.6396, 38.35657, 9754.0],
          [-90.65772, 38.29797, 9754.0],
          [-90.6762, 38.23801, 9754.0],
          [-90.69447, 38.17898, 9754.0],
          [-90.71256, 38.12028, 9754.0],
          [-90.73053, 38.06176, 9754.0],
          [-90.7482, 38.00413, 9754.0],
          [-90.766, 37.94604, 9754.0],
          [-90.78469, 37.885, 9754.0],
          [-90.80183, 37.8289, 9754.0],
          [-90.81912, 37.772, 9754.0],
          [-90.83747, 37.7119, 9754.0],
          [-90.85395, 37.65779, 9754.0],
          [-90.87216, 37.59759, 9754.0],
          [-90.89013, 37.53827, 9754.0],
          [-90.90737, 37.48137, 9754.0],
          [-90.92554, 37.42111, 9754.0],
          [-90.94273, 37.36413, 9754.0],
          [-90.96142, 37.30203, 9754.0],
          [-90.97907, 37.24324, 9754.0],
          [-90.99731, 37.18258, 9754.0],
          [-91.01781, 37.1142, 9754.0],
          [-91.03642, 37.052, 9754.0],
          [-91.05379, 36.99367, 9754.0],
          [-91.07204, 36.93246, 9754.0],
          [-91.08741, 36.88174, 9754.0],
          [-91.09764, 36.85963, 9754.0],
          [-91.13663, 36.81473, 9754.0],
          [-91.2009, 36.77208, 9677.0],
          [-91.25937, 36.73526, 9517.0],
          [-91.31842, 36.69792, 9365.0],
          [-91.36704, 36.66701, 9235.0],
          [-91.43775, 36.63289, 9068.0],
          [-91.50381, 36.60461, 8915.0],
          [-91.56933, 36.57724, 8771.0],
          [-91.63807, 36.54914, 8611.0],
          [-91.70219, 36.52318, 8466.0],
          [-91.75232, 36.50254, 8344.0],
          [-91.78709, 36.48122, 8252.0],
          [-91.8138, 36.45352, 8146.0],
          [-91.84484, 36.39203, 7971.0],
          [-91.85979, 36.35497, 7925.0],
          [-91.86275, 36.32277, 7925.0],
          [-91.85646, 36.2877, 7902.0],
          [-91.83924, 36.2531, 7818.0],
          [-91.80784, 36.21946, 7711.0],
          [-91.73212, 36.16109, 7483.0],
          [-91.6832, 36.12346, 7109.0],
          [-91.63176, 36.08385, 6805.0],
          [-91.58045, 36.04419, 6561.0],
          [-91.53122, 36.00604, 6332.0],
          [-91.48029, 35.96663, 6104.0],
          [-91.43131, 35.92859, 5883.0],
          [-91.37925, 35.88819, 5639.0],
          [-91.32797, 35.84825, 5410.0],
          [-91.27775, 35.80901, 5182.0],
          [-91.2315, 35.77295, 4983.0],
          [-91.17945, 35.73224, 4755.0],
          [-91.13165, 35.69481, 4564.0],
          [-91.08381, 35.65727, 4336.0],
          [-91.03716, 35.62056, 4130.0],
          [-90.99169, 35.58486, 3932.0],
          [-90.94295, 35.54645, 3719.0],
          [-90.90551, 35.51738, 3551.0],
          [-90.87513, 35.50021, 3437.0],
          [-90.84507, 35.48831, 3330.0],
          [-90.78947, 35.46968, 3139.0],
          [-90.73305, 35.45078, 3018.0],
          [-90.6823, 35.43384, 3018.0],
          [-90.63651, 35.41834, 3018.0],
          [-90.59195, 35.40363, 3018.0],
          [-90.56509, 35.39637, 3018.0],
          [-90.52121, 35.39106, 2918.0],
          [-90.47206, 35.38571, 2781.0],
          [-90.42292, 35.38026, 2644.0],
          [-90.39803, 35.37735, 2576.0],
          [-90.3499, 35.37177, 2446.0],
          [-90.30177, 35.36592, 2309.0],
          [-90.25354, 35.36018, 2179.0],
          [-90.20594, 35.35464, 2050.0],
          [-90.16125, 35.34966, 1928.0],
          [-90.1125, 35.34421, 1791.0],
          [-90.08623, 35.34009, 1714.0],
          [-90.06896, 35.32915, 1654.0],
          [-90.04967, 35.30685, 1547.0],
          [-90.03775, 35.29223, 1463.0],
          [-90.01528, 35.26483, 1288.0],
          [-90.00438, 35.25136, 1189.0],
          [-89.99302, 35.23727, 1082.0],
          [-89.9822, 35.22347, 983.0],
          [-89.97898, 35.20789, 922.0],
          [-89.97986, 35.19382, 838.0],
          [-89.97934, 35.17836, 762.0],
          [-89.97887, 35.16586, 686.0],
          [-89.97837, 35.15062, 602.0],
          [-89.97786, 35.12943, 480.0],
          [-89.97747, 35.11391, 396.0],
          [-89.97724, 35.10406, 343.0],
          [-89.97696, 35.09285, 282.0],
          [-89.97683, 35.08326, 229.0],
          [-89.97657, 35.0728, 168.0],
          [-89.97631, 35.06194, 107.0]
        ]
      }
    },
    {
      "type": "Feature",
      "properties": { "name": "RPA5715", "icon": null, "type": "flight", "order": 3.0 },
      "geometry": {
        "type": "LineString",
        "coordinates": [
          [-89.97557, 35.02921, 229.0],
          [-89.97528, 35.01796, 457.0],
          [-89.97528, 35.00752, 625.0],
          [-89.97488, 34.99443, 671.0],
          [-89.9667, 34.98225, 777.0],
          [-89.94907, 34.97837, 853.0],
          [-89.93145, 34.98401, 945.0],
          [-89.91424, 34.99507, 1113.0],
          [-89.88532, 35.01544, 1242.0],
          [-89.84968, 35.04029, 1532.0],
          [-89.82445, 35.0583, 1745.0],
          [-89.8094, 35.07534, 1920.0],
          [-89.79574, 35.1004, 2172.0],
          [-89.77557, 35.13982, 2568.0],
          [-89.75668, 35.17671, 2858.0],
          [-89.72546, 35.23767, 3208.0],
          [-89.70156, 35.28422, 3452.0],
          [-89.67854, 35.32896, 3764.0],
          [-89.65592, 35.37295, 4023.0],
          [-89.63156, 35.4202, 4282.0],
          [-89.6085, 35.46497, 4519.0],
          [-89.58178, 35.51665, 4808.0],
          [-89.55727, 35.56405, 5044.0],
          [-89.5332, 35.61058, 5273.0],
          [-89.51181, 35.65017, 5479.0],
          [-89.48742, 35.68684, 5616.0],
          [-89.4546, 35.73136, 5738.0],
          [-89.41927, 35.77872, 5784.0],
          [-89.3819, 35.8287, 5852.0],
          [-89.34275, 35.88093, 6043.0],
          [-89.30488, 35.93144, 6218.0],
          [-89.26503, 35.98451, 6424.0],
          [-89.22609, 36.0363, 6614.0],
          [-89.18614, 36.0893, 6812.0],
          [-89.14473, 36.1442, 7010.0],
          [-89.10479, 36.19706, 7391.0],
          [-89.06423, 36.2506, 7628.0],
          [-89.02519, 36.30212, 7788.0],
          [-88.98511, 36.35492, 7932.0],
          [-88.94449, 36.40832, 8085.0],
          [-88.90499, 36.46036, 8222.0],
          [-88.8644, 36.51366, 8382.0],
          [-88.82452, 36.56604, 8534.0],
          [-88.78315, 36.62022, 8633.0],
          [-88.73995, 36.67671, 8740.0],
          [-88.69715, 36.73256, 8847.0],
          [-88.65488, 36.78767, 8954.0],
          [-88.61309, 36.8421, 9091.0],
          [-88.57149, 36.89612, 9235.0],
          [-88.52801, 36.95251, 9388.0],
          [-88.48377, 37.00974, 9449.0],
          [-88.44161, 37.06424, 9472.0],
          [-88.39734, 37.12129, 9571.0],
          [-88.35316, 37.17819, 9647.0],
          [-88.30733, 37.23718, 9731.0],
          [-88.26527, 37.29108, 9830.0],
          [-88.21834, 37.35118, 9891.0],
          [-88.17405, 37.40767, 9959.0],
          [-88.12946, 37.4644, 10058.0],
          [-88.08641, 37.5191, 10058.0],
          [-88.04069, 37.57718, 10058.0],
          [-87.99792, 37.63139, 10058.0],
          [-87.95302, 37.68818, 10058.0],
          [-87.908, 37.74502, 10058.0],
          [-87.86141, 37.80368, 10058.0],
          [-87.81635, 37.86033, 10058.0],
          [-87.7862, 37.89862, 10058.0],
          [-87.74488, 37.95648, 10058.0],
          [-87.70257, 38.0159, 10058.0],
          [-87.66009, 38.07386, 10058.0],
          [-87.61698, 38.1341, 10058.0],
          [-87.57594, 38.19186, 10058.0],
          [-87.53281, 38.25252, 10058.0],
          [-87.49126, 38.31088, 10058.0],
          [-87.44663, 38.37343, 10058.0],
          [-87.40741, 38.42848, 10058.0],
          [-87.36143, 38.49284, 10058.0],
          [-87.3194, 38.55144, 10058.0],
          [-87.27991, 38.60624, 10058.0],
          [-87.23657, 38.6662, 10058.0],
          [-87.19287, 38.72681, 10058.0],
          [-87.15078, 38.78494, 10058.0],
          [-87.1106, 38.84052, 10058.0],
          [-87.06787, 38.89938, 10058.0],
          [-87.02637, 38.9565, 10058.0],
          [-86.98297, 39.01608, 10058.0],
          [-86.94135, 39.07316, 10074.0],
          [-86.89774, 39.1328, 10066.0],
          [-86.85403, 39.1924, 10051.0],
          [-86.81232, 39.24922, 10058.0],
          [-86.76929, 39.30778, 10058.0],
          [-86.72691, 39.3652, 10058.0],
          [-86.68165, 39.42659, 10058.0],
          [-86.63751, 39.48621, 10058.0],
          [-86.59442, 39.54424, 10058.0],
          [-86.55133, 39.60236, 10058.0],
          [-86.50826, 39.66023, 10058.0],
          [-86.46527, 39.7179, 10058.0],
          [-86.42291, 39.77456, 10058.0],
          [-86.3806, 39.83102, 10058.0],
          [-86.32997, 39.88705, 10058.0],
          [-86.2639, 39.94866, 10058.0],
          [-86.20753, 40.00057, 10058.0],
          [-86.17295, 40.03218, 10058.0],
          [-86.11719, 40.08293, 10005.0],
          [-86.0594, 40.1378, 9761.0],
          [-86.00216, 40.19208, 9517.0],
          [-85.9486, 40.24255, 9281.0],
          [-85.89342, 40.29445, 9045.0],
          [-85.83924, 40.34529, 8824.0],
          [-85.78595, 40.39517, 8580.0],
          [-85.73287, 40.44482, 8344.0],
          [-85.6795, 40.49458, 8115.0],
          [-85.62594, 40.54444, 7879.0],
          [-85.57263, 40.59397, 7650.0],
          [-85.52164, 40.64122, 7414.0],
          [-85.46924, 40.68956, 7239.0],
          [-85.39667, 40.75095, 7003.0],
          [-85.34186, 40.79764, 6820.0],
          [-85.28768, 40.84363, 6645.0],
          [-85.23694, 40.88177, 6485.0],
          [-85.18066, 40.91895, 6401.0],
          [-85.12457, 40.9561, 6401.0],
          [-85.0639, 40.9958, 6401.0],
          [-85.00909, 41.03142, 6401.0],
          [-84.95044, 41.06932, 6401.0],
          [-84.89279, 41.10651, 6401.0],
          [-84.8324, 41.14558, 6401.0],
          [-84.79767, 41.16989, 6401.0],
          [-84.7451, 41.20841, 6401.0],
          [-84.6842, 41.25201, 6401.0],
          [-84.62384, 41.29591, 6401.0],
          [-84.57082, 41.33452, 6401.0],
          [-84.51373, 41.37621, 6401.0],
          [-84.45631, 41.41818, 6401.0],
          [-84.41326, 41.45709, 6401.0],
          [-84.3536, 41.5266, 6401.0],
          [-84.31266, 41.5752, 6401.0],
          [-84.27223, 41.62324, 6401.0],
          [-84.2316, 41.67147, 6401.0],
          [-84.18986, 41.71962, 6401.0],
          [-84.15706, 41.74865, 6302.0],
          [-84.08258, 41.80149, 5875.0],
          [-84.02733, 41.83994, 5547.0],
          [-83.9765, 41.87517, 5220.0],
          [-83.92362, 41.9117, 4915.0],
          [-83.87084, 41.94808, 4610.0],
          [-83.81963, 41.98347, 4305.0],
          [-83.77094, 42.01754, 4016.0],
          [-83.7235, 42.05058, 3726.0],
          [-83.67599, 42.08359, 3452.0],
          [-83.64492, 42.10529, 3292.0],
          [-83.60134, 42.13838, 3200.0],
          [-83.56712, 42.16418, 3078.0],
          [-83.5426, 42.18269, 2918.0],
          [-83.52694, 42.19802, 2812.0],
          [-83.51283, 42.21715, 2705.0],
          [-83.49054, 42.24746, 2598.0],
          [-83.47112, 42.27443, 2476.0],
          [-83.45327, 42.30226, 2271.0],
          [-83.43542, 42.32945, 2035.0],
          [-83.41612, 42.35867, 1821.0],
          [-83.39797, 42.38608, 1654.0],
          [-83.37978, 42.41356, 1463.0],
          [-83.36138, 42.44135, 1273.0],
          [-83.34395, 42.4676, 1204.0],
          [-83.33155, 42.48491, 1204.0],
          [-83.31201, 42.49338, 1204.0],
          [-83.28873, 42.48885, 1204.0],
          [-83.27243, 42.47195, 1204.0],
          [-83.25459, 42.44922, 1189.0],
          [-83.24303, 42.43437, 1074.0],
          [-83.24015, 42.41998, 968.0],
          [-83.24219, 42.40276, 899.0],
          [-83.25171, 42.38386, 899.0],
          [-83.26717, 42.36067, 899.0],
          [-83.27805, 42.3457, 899.0],
          [-83.29447, 42.32368, 800.0],
          [-83.31114, 42.30103, 663.0],
          [-83.32562, 42.28134, 541.0],
          [-83.33217, 42.27251, 480.0],
          [-83.33941, 42.26268, 419.0],
          [-83.34634, 42.25333, 358.0],
          [-83.35353, 42.2435, 305.0],
          [-83.36076, 42.23373, 244.0],
          [-83.36873, 42.22297, 183.0]
        ]
      }
    }
  ]
}
