{
  "type": "FeatureCollection",
  "name": "geometry",
  "features": [
    {
      "type": "Feature",
      "properties": { "name": "YMML Airport", "icon": "target", "type": null, "order": null },
      "geometry": { "type": "Point", "coordinates": [144.843333, -37.673333, 0.0] }
    },
    {
      "type": "Feature",
      "properties": { "name": "YPAD Airport", "icon": "target", "type": null, "order": null },
      "geometry": { "type": "Point", "coordinates": [138.530556, -34.945, 0.0] }
    },
    {
      "type": "Feature",
      "properties": { "name": "QFA685", "icon": null, "type": "flight", "order": 1.0 },
      "geometry": {
        "type": "LineString",
        "coordinates": [
          [144.84013, -37.68118, 114.0],
          [144.84235, -37.6929, 320.0],
          [144.84509, -37.70636, 480.0],
          [144.8469, -37.71589, 549.0],
          [144.84793, -37.72109, 572.0],
          [144.84906, -37.73692, 693.0],
          [144.83826, -37.75312, 922.0],
          [144.82766, -37.75864, 1067.0],
          [144.82094, -37.76035, 1158.0],
          [144.815, -37.76106, 1212.0],
          [144.80654, -37.761, 1250.0],
          [144.7992, -37.7599, 1280.0],
          [144.79103, -37.75815, 1318.0],
          [144.78403, -37.75671, 1341.0],
          [144.77601, -37.7551, 1372.0],
          [144.76788, -37.75355, 1463.0],
          [144.75174, -37.75059, 1646.0],
          [144.74352, -37.74917, 1768.0],
          [144.73535, -37.74774, 1829.0],
          [144.72732, -37.74628, 1890.0],
          [144.71061, -37.74261, 2073.0],
          [144.7072, -37.74162, 2111.0],
          [144.67275, -37.72956, 2431.0],
          [144.62104, -37.71043, 2675.0],
          [144.61939, -37.7098, 2682.0],
          [144.56518, -37.68961, 3010.0],
          [144.53399, -37.67798, 3231.0],
          [144.52427, -37.67431, 3322.0],
          [144.5145, -37.67064, 3444.0],
          [144.50801, -37.66821, 3520.0],
          [144.49547, -37.66356, 3658.0],
          [144.44976, -37.6463, 4069.0],
          [144.38991, -37.6237, 4450.0],
          [144.3796, -37.61983, 4511.0],
          [144.35947, -37.61225, 4633.0],
          [144.34949, -37.60845, 4694.0],
          [144.32917, -37.60092, 4816.0],
          [144.30877, -37.59331, 4968.0],
          [144.29857, -37.58953, 5029.0],
          [144.26907, -37.57855, 5250.0],
          [144.20672, -37.55513, 5654.0],
          [144.15384, -37.5352, 5944.0],
          [144.14062, -37.53017, 5997.0],
          [144.13254, -37.52709, 6035.0],
          [144.12196, -37.5231, 6096.0],
          [144.10039, -37.51492, 6187.0],
          [144.08962, -37.51084, 6248.0],
          [144.075, -37.50531, 6325.0],
          [144.01148, -37.48121, 6599.0],
          [143.99081, -37.47331, 6706.0],
          [143.96856, -37.46488, 6797.0],
          [143.95755, -37.46065, 6828.0],
          [143.94209, -37.45477, 6904.0],
          [143.93472, -37.45194, 6949.0],
          [143.92341, -37.44767, 6980.0],
          [143.91212, -37.44336, 7041.0],
          [143.88918, -37.43463, 7132.0],
          [143.87325, -37.42856, 7186.0],
          [143.855, -37.42164, 7254.0],
          [143.80626, -37.40305, 7422.0],
          [143.74997, -37.38152, 7620.0],
          [143.7329, -37.37503, 7696.0],
          [143.6789, -37.35433, 7894.0],
          [143.6554, -37.34525, 7986.0],
          [143.64341, -37.34064, 8016.0],
          [143.63165, -37.33613, 8047.0],
          [143.58916, -37.31977, 8192.0],
          [143.53518, -37.29897, 8352.0],
          [143.51809, -37.29236, 8420.0],
          [143.44574, -37.26451, 8633.0],
          [143.42568, -37.25674, 8687.0],
          [143.38922, -37.2426, 8809.0],
          [143.37313, -37.23639, 8900.0],
          [143.36484, -37.23314, 8931.0],
          [143.35298, -37.22857, 8992.0],
          [143.34088, -37.22385, 9053.0],
          [143.31714, -37.21451, 9174.0],
          [143.30539, -37.20992, 9205.0],
          [143.30286, -37.20892, 9228.0],
          [143.28142, -37.20054, 9327.0],
          [143.24588, -37.18877, 9472.0],
          [143.1964, -37.17374, 9662.0],
          [143.17254, -37.16638, 9754.0],
          [143.16031, -37.16259, 9784.0],
          [143.0999, -37.14404, 9982.0],
          [143.07577, -37.13669, 10058.0],
          [143.04002, -37.12576, 10180.0],
          [143.02604, -37.12152, 10218.0],
          [143.01588, -37.1184, 10241.0],
          [143.00388, -37.11478, 10302.0],
          [142.99195, -37.11109, 10333.0],
          [142.95635, -37.10019, 10424.0],
          [142.93258, -37.09285, 10516.0],
          [142.8973, -37.08199, 10607.0],
          [142.88179, -37.07718, 10660.0],
          [142.81229, -37.05577, 10851.0],
          [142.77952, -37.04571, 10942.0],
          [142.75643, -37.03862, 11003.0],
          [142.7425, -37.03432, 11041.0],
          [142.67208, -37.01262, 11209.0],
          [142.60361, -36.99129, 11354.0],
          [142.59357, -36.98816, 11369.0],
          [142.55885, -36.9773, 11430.0],
          [142.53566, -36.97009, 11491.0],
          [142.53574, -36.97009, 11483.0],
          [142.50104, -36.95932, 11552.0],
          [142.47804, -36.95211, 11582.0],
          [142.46375, -36.94762, 11582.0],
          [142.39689, -36.92657, 11582.0],
          [142.36211, -36.91565, 11582.0],
          [142.33906, -36.90838, 11582.0],
          [142.32758, -36.90479, 11582.0],
          [142.3046, -36.89756, 11582.0],
          [142.29293, -36.89389, 11582.0],
          [142.28132, -36.89029, 11582.0],
          [142.25829, -36.88312, 11582.0],
          [142.25522, -36.88213, 11582.0],
          [142.22385, -36.87231, 11582.0],
          [142.20092, -36.8651, 11582.0],
          [142.18028, -36.85867, 11575.0],
          [142.16676, -36.85441, 11582.0],
          [142.14382, -36.8472, 11582.0],
          [142.1094, -36.83632, 11582.0],
          [142.08668, -36.82911, 11582.0],
          [142.0753, -36.82544, 11582.0],
          [142.05236, -36.81821, 11582.0],
          [142.04106, -36.81458, 11582.0],
          [142.02971, -36.81098, 11582.0],
          [142.01831, -36.80737, 11582.0],
          [141.99567, -36.80014, 11582.0],
          [141.98417, -36.79652, 11582.0],
          [141.97562, -36.79377, 11575.0],
          [141.97291, -36.79289, 11582.0],
          [141.93877, -36.78203, 11582.0],
          [141.91615, -36.77478, 11582.0],
          [141.90993, -36.77282, 11582.0],
          [141.8821, -36.76392, 11582.0],
          [141.8595, -36.75673, 11582.0],
          [141.848, -36.75302, 11582.0],
          [141.84042, -36.75064, 11582.0],
          [141.82543, -36.74586, 11582.0],
          [141.81414, -36.74221, 11582.0],
          [141.80288, -36.73865, 11582.0],
          [141.77371, -36.7293, 11575.0],
          [141.70475, -36.7072, 11575.0],
          [141.68949, -36.70228, 11582.0],
          [141.66683, -36.69498, 11582.0],
          [141.64415, -36.68771, 11582.0],
          [141.6362, -36.68513, 11582.0],
          [141.63293, -36.68406, 11582.0],
          [141.56836, -36.66324, 11582.0],
          [141.5082, -36.64385, 11582.0],
          [141.50069, -36.64141, 11582.0],
          [141.428, -36.61794, 11582.0],
          [141.39471, -36.60715, 11582.0],
          [141.37213, -36.59979, 11582.0],
          [141.36074, -36.5961, 11582.0],
          [141.35731, -36.59496, 11582.0],
          [141.3381, -36.58872, 11582.0],
          [141.30399, -36.57758, 11582.0],
          [141.28973, -36.57294, 11582.0],
          [141.2813, -36.57022, 11582.0],
          [141.21943, -36.55002, 11582.0],
          [141.20165, -36.54424, 11582.0],
          [141.15164, -36.52791, 11582.0],
          [141.09977, -36.51085, 11582.0],
          [141.07468, -36.50259, 11582.0],
          [141.00905, -36.48111, 11582.0],
          [140.92858, -36.45445, 11582.0],
          [140.86191, -36.43225, 11582.0],
          [140.83941, -36.42481, 11582.0],
          [140.82818, -36.42114, 11582.0],
          [140.80559, -36.41369, 11582.0],
          [140.79243, -36.40933, 11575.0],
          [140.78316, -36.40622, 11582.0],
          [140.76106, -36.39771, 11582.0],
          [140.75023, -36.39301, 11582.0],
          [140.70574, -36.36964, 11582.0],
          [140.68027, -36.35361, 11582.0],
          [140.6609, -36.34142, 11582.0],
          [140.64177, -36.32941, 11575.0],
          [140.64165, -36.32932, 11582.0],
          [140.63197, -36.32327, 11582.0],
          [140.61273, -36.3111, 11582.0],
          [140.60305, -36.30505, 11582.0],
          [140.58389, -36.29293, 11582.0],
          [140.58024, -36.29063, 11582.0],
          [140.55509, -36.27471, 11582.0],
          [140.53593, -36.26252, 11582.0],
          [140.52227, -36.25386, 11582.0],
          [140.51653, -36.25023, 11582.0],
          [140.49739, -36.23802, 11582.0],
          [140.4878, -36.23192, 11582.0],
          [140.46868, -36.21976, 11582.0],
          [140.46501, -36.21739, 11582.0],
          [140.4398, -36.20132, 11582.0],
          [140.42068, -36.18914, 11582.0],
          [140.41096, -36.18294, 11582.0],
          [140.4015, -36.17686, 11582.0],
          [140.38221, -36.16461, 11582.0],
          [140.37277, -36.15858, 11582.0],
          [140.36319, -36.15244, 11582.0],
          [140.35378, -36.14646, 11552.0],
          [140.35022, -36.14414, 11537.0],
          [140.29389, -36.10806, 11148.0],
          [140.28824, -36.1044, 11125.0],
          [140.26934, -36.09236, 11003.0],
          [140.25994, -36.0864, 10912.0],
          [140.23859, -36.07278, 10729.0],
          [140.18353, -36.03754, 10363.0],
          [140.17811, -36.03406, 10325.0],
          [140.17422, -36.03151, 10302.0],
          [140.15514, -36.01921, 10211.0],
          [140.14559, -36.01312, 10150.0],
          [140.12673, -36.00104, 10028.0],
          [140.1182, -35.99556, 9982.0],
          [140.09834, -35.98276, 9876.0],
          [140.07025, -35.96465, 9693.0],
          [140.0602, -35.95821, 9639.0],
          [140.05157, -35.95265, 9601.0],
          [140.04223, -35.94656, 9540.0],
          [140.02384, -35.93471, 9449.0],
          [140.01468, -35.92879, 9388.0],
          [140.00545, -35.92287, 9327.0],
          [139.9508, -35.88763, 9014.0],
          [139.914, -35.8638, 8809.0],
          [139.89569, -35.85197, 8702.0],
          [139.85018, -35.82251, 8443.0],
          [139.84, -35.8159, 8367.0],
          [139.83199, -35.81073, 8352.0],
          [139.80463, -35.79303, 8169.0],
          [139.78656, -35.78129, 8077.0],
          [139.78546, -35.78059, 8047.0],
          [139.77744, -35.77539, 8016.0],
          [139.76856, -35.76962, 7955.0],
          [139.75062, -35.75792, 7864.0],
          [139.74178, -35.75217, 7803.0],
          [139.73213, -35.74594, 7727.0],
          [139.67783, -35.71051, 7399.0],
          [139.637, -35.68394, 7193.0],
          [139.62495, -35.6761, 7079.0],
          [139.61994, -35.67282, 7071.0],
          [139.61128, -35.6672, 7041.0],
          [139.60291, -35.66173, 6980.0],
          [139.59443, -35.65619, 6919.0],
          [139.57662, -35.64463, 6797.0],
          [139.56922, -35.63978, 6767.0],
          [139.55252, -35.62886, 6675.0],
          [139.53598, -35.61798, 6553.0],
          [139.52454, -35.61049, 6477.0],
          [139.51963, -35.60725, 6462.0],
          [139.51139, -35.60188, 6431.0],
          [139.49512, -35.59122, 6309.0],
          [139.47903, -35.58075, 6218.0],
          [139.47582, -35.57862, 6187.0],
          [139.45491, -35.56493, 6066.0],
          [139.44689, -35.55972, 6035.0],
          [139.43893, -35.55448, 5974.0],
          [139.42772, -35.54718, 5890.0],
          [139.38406, -35.51854, 5639.0],
          [139.33644, -35.48724, 5334.0],
          [139.31522, -35.47331, 5212.0],
          [139.30761, -35.46831, 5151.0],
          [139.29271, -35.45844, 5060.0],
          [139.29156, -35.45768, 5060.0],
          [139.27044, -35.44365, 4968.0],
          [139.2461, -35.42647, 4923.0],
          [139.22791, -35.4045, 4823.0],
          [139.20513, -35.35633, 4542.0],
          [139.19337, -35.33134, 4420.0],
          [139.1903, -35.32474, 4359.0],
          [139.18665, -35.31683, 4321.0],
          [139.18418, -35.31143, 4298.0],
          [139.18118, -35.3048, 4267.0],
          [139.17511, -35.29154, 4176.0],
          [139.1721, -35.285, 4145.0],
          [139.16822, -35.27655, 4092.0],
          [139.16616, -35.27199, 4084.0],
          [139.15708, -35.25249, 3962.0],
          [139.15026, -35.23782, 3856.0],
          [139.13607, -35.20749, 3780.0],
          [139.1332, -35.2011, 3658.0],
          [139.13235, -35.19922, 3635.0],
          [139.12444, -35.18204, 3597.0],
          [139.12153, -35.17567, 3597.0],
          [139.11427, -35.1601, 3406.0],
          [139.09698, -35.12245, 3185.0],
          [139.08591, -35.09848, 3056.0],
          [139.0743, -35.07578, 2903.0],
          [139.0555, -35.05444, 2758.0],
          [139.03461, -35.03577, 2621.0],
          [139.00267, -35.00706, 2393.0],
          [138.9706, -34.9785, 2179.0],
          [138.94891, -34.9606, 2042.0],
          [138.92366, -34.94583, 1905.0],
          [138.88737, -34.92755, 1791.0],
          [138.85217, -34.90947, 1661.0],
          [138.81763, -34.89197, 1494.0],
          [138.78367, -34.875, 1425.0],
          [138.75841, -34.86237, 1318.0],
          [138.73014, -34.84827, 1166.0],
          [138.71097, -34.83893, 1052.0],
          [138.7025, -34.83733, 1021.0],
          [138.69553, -34.83783, 983.0],
          [138.68048, -34.84566, 861.0],
          [138.66714, -34.85529, 762.0],
          [138.64408, -34.87121, 625.0],
          [138.62044, -34.88754, 488.0],
          [138.60065, -34.90119, 366.0],
          [138.5895, -34.90873, 297.0],
          [138.57913, -34.91592, 229.0],
          [138.56854, -34.9232, 175.0],
          [138.55761, -34.93076, 107.0],
          [138.54721, -34.93787, 46.0]
        ]
      }
    },
    {
      "type": "Feature",
      "properties": { "name": "QFA690", "icon": null, "type": "flight", "order": 2.0 },
      "geometry": {
        "type": "LineString",
        "coordinates": [
          [138.52084, -34.95593, 38.0],
          [138.51025, -34.96315, 221.0],
          [138.49657, -34.97255, 404.0],
          [138.48341, -34.98173, 503.0],
          [138.47011, -34.99091, 640.0],
          [138.45814, -34.99914, 732.0],
          [138.44891, -35.00551, 831.0],
          [138.44782, -35.00624, 823.0],
          [138.43205, -35.01832, 975.0],
          [138.424, -35.02817, 1006.0],
          [138.42325, -35.03929, 1265.0],
          [138.42653, -35.05775, 1448.0],
          [138.44451, -35.07883, 1737.0],
          [138.44919, -35.08385, 1829.0],
          [138.45885, -35.09372, 1951.0],
          [138.4668, -35.09921, 2073.0],
          [138.47106, -35.10151, 2103.0],
          [138.49309, -35.10626, 2339.0],
          [138.53436, -35.10422, 2652.0],
          [138.58297, -35.10136, 3033.0],
          [138.60191, -35.10018, 3170.0],
          [138.63562, -35.09801, 3277.0],
          [138.68677, -35.09473, 3414.0],
          [138.69501, -35.0942, 3421.0],
          [138.70739, -35.09338, 3444.0],
          [138.71782, -35.09271, 3505.0],
          [138.7284, -35.09205, 3536.0],
          [138.74962, -35.09065, 3658.0],
          [138.76033, -35.08997, 3719.0],
          [138.78176, -35.08859, 3840.0],
          [138.82162, -35.08598, 4115.0],
          [138.86837, -35.08289, 4359.0],
          [138.89034, -35.08143, 4481.0],
          [138.95687, -35.07706, 4823.0],
          [139.02363, -35.0726, 5136.0],
          [139.05097, -35.0707, 5273.0],
          [139.08646, -35.06827, 5456.0],
          [139.09437, -35.06772, 5494.0],
          [139.11043, -35.06658, 5578.0],
          [139.13431, -35.06497, 5700.0],
          [139.14618, -35.06415, 5761.0],
          [139.1633, -35.06319, 5883.0],
          [139.17, -35.06299, 5913.0],
          [139.18212, -35.06336, 5974.0],
          [139.19403, -35.06467, 6035.0],
          [139.21819, -35.06992, 6157.0],
          [139.25749, -35.08735, 6355.0],
          [139.2981, -35.1123, 6553.0],
          [139.30793, -35.11833, 6584.0],
          [139.31782, -35.12436, 6645.0],
          [139.32452, -35.12851, 6668.0],
          [139.34765, -35.14269, 6767.0],
          [139.36771, -35.15503, 6858.0],
          [139.38708, -35.16701, 6942.0],
          [139.39796, -35.17372, 6980.0],
          [139.41822, -35.1862, 7071.0],
          [139.45078, -35.20634, 7216.0],
          [139.48769, -35.22869, 7369.0],
          [139.53655, -35.25243, 7544.0],
          [139.59559, -35.27487, 7742.0],
          [139.60773, -35.27942, 7803.0],
          [139.63198, -35.28845, 7894.0],
          [139.66848, -35.30216, 7986.0],
          [139.68178, -35.30708, 8047.0],
          [139.69284, -35.31122, 8077.0],
          [139.70507, -35.31577, 8108.0],
          [139.72959, -35.32486, 8199.0],
          [139.74204, -35.32948, 8230.0],
          [139.75435, -35.33403, 8260.0],
          [139.77907, -35.34312, 8352.0],
          [139.82986, -35.36197, 8534.0],
          [139.89847, -35.38728, 8839.0],
          [139.96294, -35.41106, 9083.0],
          [139.97309, -35.41479, 9121.0],
          [139.99938, -35.42449, 9205.0],
          [140.02378, -35.4335, 9296.0],
          [140.03416, -35.43728, 9327.0],
          [140.04798, -35.44239, 9388.0],
          [140.07212, -35.45127, 9449.0],
          [140.08425, -35.45569, 9510.0],
          [140.10851, -35.4646, 9601.0],
          [140.12839, -35.47187, 9670.0],
          [140.14454, -35.47779, 9723.0],
          [140.16851, -35.48657, 9815.0],
          [140.20248, -35.49897, 9967.0],
          [140.20432, -35.49968, 9967.0],
          [140.22799, -35.50833, 10058.0],
          [140.24001, -35.51268, 10089.0],
          [140.25174, -35.51695, 10150.0],
          [140.26834, -35.52306, 10203.0],
          [140.2753, -35.5256, 10241.0],
          [140.28704, -35.52987, 10272.0],
          [140.34204, -35.54984, 10462.0],
          [140.3921, -35.56817, 10638.0],
          [140.4103, -35.57475, 10660.0],
          [140.41529, -35.57658, 10668.0],
          [140.42688, -35.58081, 10668.0],
          [140.4484, -35.58879, 10668.0],
          [140.45006, -35.58933, 10668.0],
          [140.4834, -35.60152, 10668.0],
          [140.48831, -35.60334, 10660.0],
          [140.50836, -35.61062, 10668.0],
          [140.53153, -35.61907, 10668.0],
          [140.5432, -35.62332, 10668.0],
          [140.56661, -35.63175, 10668.0],
          [140.57829, -35.63602, 10668.0],
          [140.63398, -35.65604, 10668.0],
          [140.70482, -35.68153, 10668.0],
          [140.77618, -35.70692, 10668.0],
          [140.84513, -35.73161, 10668.0],
          [140.87189, -35.74121, 10668.0],
          [140.91488, -35.75656, 10668.0],
          [140.95457, -35.77069, 10668.0],
          [140.99008, -35.78335, 10668.0],
          [141.01388, -35.79185, 10668.0],
          [141.02561, -35.79601, 10668.0],
          [141.06106, -35.80867, 10668.0],
          [141.06216, -35.80902, 10668.0],
          [141.07308, -35.81281, 10668.0],
          [141.13363, -35.83443, 10668.0],
          [141.15614, -35.8424, 10668.0],
          [141.20541, -35.85984, 10668.0],
          [141.23942, -35.87186, 10668.0],
          [141.24933, -35.8753, 10668.0],
          [141.27491, -35.88439, 10668.0],
          [141.27682, -35.88507, 10668.0],
          [141.29884, -35.89287, 10668.0],
          [141.33428, -35.9054, 10668.0],
          [141.35799, -35.91371, 10668.0],
          [141.37014, -35.918, 10668.0],
          [141.39183, -35.92561, 10668.0],
          [141.40563, -35.93044, 10668.0],
          [141.41765, -35.93471, 10668.0],
          [141.4301, -35.93907, 10668.0],
          [141.44121, -35.94295, 10668.0],
          [141.47672, -35.95533, 10668.0],
          [141.50071, -35.96379, 10668.0],
          [141.50256, -35.96444, 10668.0],
          [141.51281, -35.96802, 10668.0],
          [141.52446, -35.97214, 10668.0],
          [141.54753, -35.98016, 10668.0],
          [141.55957, -35.98439, 10668.0],
          [141.5738, -35.98935, 10660.0],
          [141.58347, -35.99271, 10668.0],
          [141.61885, -36.00505, 10668.0],
          [141.64267, -36.01338, 10668.0],
          [141.64591, -36.01449, 10668.0],
          [141.66632, -36.02162, 10668.0],
          [141.67812, -36.02571, 10668.0],
          [141.70211, -36.0341, 10668.0],
          [141.71374, -36.03818, 10668.0],
          [141.72599, -36.04243, 10668.0],
          [141.76136, -36.05479, 10668.0],
          [141.78513, -36.06305, 10668.0],
          [141.8088, -36.07127, 10668.0],
          [141.82088, -36.07548, 10668.0],
          [141.84483, -36.0838, 10668.0],
          [141.85654, -36.08781, 10668.0],
          [141.86588, -36.09105, 10668.0],
          [141.93592, -36.1154, 10668.0],
          [142.00659, -36.13981, 10668.0],
          [142.0792, -36.16475, 10668.0],
          [142.15613, -36.19115, 10668.0],
          [142.22649, -36.21519, 10668.0],
          [142.30281, -36.24134, 10668.0],
          [142.37849, -36.26713, 10668.0],
          [142.44764, -36.29059, 10668.0],
          [142.51897, -36.31484, 10660.0],
          [142.59272, -36.33979, 10660.0],
          [142.66571, -36.36438, 10668.0],
          [142.73758, -36.38864, 10668.0],
          [142.80939, -36.41281, 10668.0],
          [142.88146, -36.43695, 10668.0],
          [142.95299, -36.46078, 10660.0],
          [143.0274, -36.4856, 10660.0],
          [143.09658, -36.50862, 10668.0],
          [143.17114, -36.53345, 10660.0],
          [143.24135, -36.55673, 10668.0],
          [143.31238, -36.5801, 10660.0],
          [143.38543, -36.60416, 10455.0],
          [143.46123, -36.62916, 9982.0],
          [143.53008, -36.65176, 9510.0],
          [143.60281, -36.67552, 8976.0],
          [143.67886, -36.70033, 8405.0],
          [143.74912, -36.72313, 8009.0],
          [143.82116, -36.74657, 7597.0],
          [143.89566, -36.77065, 7178.0],
          [143.9663, -36.79345, 6774.0],
          [144.03242, -36.81468, 6401.0],
          [144.10492, -36.8379, 5982.0],
          [144.16984, -36.85867, 5608.0],
          [144.2357, -36.87973, 5220.0],
          [144.30261, -36.90102, 4839.0],
          [144.35988, -36.91978, 4511.0],
          [144.39378, -36.93539, 4298.0],
          [144.428, -36.95712, 4069.0],
          [144.47947, -36.99278, 3696.0],
          [144.52807, -37.02667, 3360.0],
          [144.58772, -37.06834, 3178.0],
          [144.63035, -37.09799, 3048.0],
          [144.66966, -37.12555, 2934.0],
          [144.70929, -37.15297, 2705.0],
          [144.72985, -37.17192, 2560.0],
          [144.74002, -37.20044, 2393.0],
          [144.75019, -37.23797, 2179.0],
          [144.75897, -37.27056, 1981.0],
          [144.76059, -37.27661, 1951.0],
          [144.76225, -37.28281, 1920.0],
          [144.76395, -37.28916, 1890.0],
          [144.76556, -37.29515, 1859.0],
          [144.76715, -37.30144, 1859.0],
          [144.77026, -37.31341, 1829.0],
          [144.77176, -37.31927, 1798.0],
          [144.7733, -37.32508, 1798.0],
          [144.77598, -37.33615, 1760.0],
          [144.78052, -37.36283, 1661.0],
          [144.78169, -37.3698, 1646.0],
          [144.78363, -37.38055, 1615.0],
          [144.78562, -37.39109, 1585.0],
          [144.78631, -37.39499, 1554.0],
          [144.7865, -37.39626, 1554.0],
          [144.78824, -37.40628, 1524.0],
          [144.78901, -37.41109, 1524.0],
          [144.7911, -37.42387, 1417.0],
          [144.79497, -37.44448, 1303.0],
          [144.7956, -37.44726, 1311.0],
          [144.79671, -37.45126, 1280.0],
          [144.79892, -37.459, 1250.0],
          [144.80308, -37.48141, 1105.0],
          [144.80384, -37.48582, 1097.0],
          [144.80525, -37.49323, 1036.0],
          [144.80601, -37.49694, 1006.0],
          [144.80703, -37.50225, 975.0],
          [144.80738, -37.50434, 975.0],
          [144.80918, -37.51529, 914.0],
          [144.81137, -37.52631, 853.0],
          [144.81272, -37.53361, 792.0],
          [144.81334, -37.53713, 762.0],
          [144.8139, -37.54073, 762.0],
          [144.81497, -37.54615, 709.0],
          [144.81594, -37.55146, 671.0],
          [144.81727, -37.55839, 640.0],
          [144.81891, -37.56696, 587.0],
          [144.82199, -37.58395, 488.0],
          [144.8223, -37.58574, 480.0],
          [144.82311, -37.59015, 457.0],
          [144.82371, -37.59331, 427.0],
          [144.82433, -37.59642, 427.0],
          [144.82563, -37.60345, 373.0],
          [144.82609, -37.60592, 366.0],
          [144.82721, -37.61183, 320.0],
          [144.82903, -37.62161, 274.0],
          [144.82914, -37.62231, 251.0],
          [144.83021, -37.62796, 244.0],
          [144.83103, -37.63236, 198.0],
          [144.83206, -37.63757, 183.0],
          [144.83306, -37.64328, 137.0],
          [144.83479, -37.65261, 76.0],
          [144.83657, -37.66206, 46.0]
        ]
      }
    }
  ]
}
